{
  "type": "FeatureCollection",
  "properties": {
    "schemaVersion": "1.0.0-workpack",
    "workpackId": "beicai-yuqiao",
    "generatedAt": "2026-07-23",
    "status": "selected-workpack-candidate",
    "scenarioSemantics": "Only the user-selected split candidate is included; no rejected-scenario geometry or metadata is present.",
    "attribution": "© OpenStreetMap contributors",
    "license": "ODbL-1.0",
    "sourceSnapshotId": "osm-geofabrik-shanghai-260721",
    "sourceGpkgSha256": "3a45dcc2173cc1e67471e0190564b7f6c19b3655697d0eff830bda48e2dcbba1",
    "outputCrs": "OGC:CRS84",
    "decisionStatus": "user-decided",
    "selectedCandidateId": "S1-split-beicai-yuqiao",
    "assemblyReadiness": "conditional-ready-for-candidate-assembly",
    "adjacentTopologyStatus": "requires-assembler-snap-to-existing-qiantan-sanlin-edge-owners",
    "assemblySnapToleranceMeters": 1,
    "maximumObservedProjectedSliverSquareMeters": 4.135
  },
  "features": [
    {
      "type": "Feature",
      "properties": {
        "id": "sector_beicai",
        "name": "北蔡",
        "workpackId": "beicai-yuqiao",
        "status": "selected-workpack-candidate",
        "decisionStatus": "user-decided",
        "confidence": "low",
        "coordinateSystem": "WGS84",
        "workingCrs": "EPSG:32651",
        "geometrySourceSnapshotId": "osm-geofabrik-shanghai-260721",
        "sourceAdminRelationId": "14179101",
        "sourceAdminRelationRole": "non-final-market-envelope",
        "priorityClipSectorIds": [
          "sector_qiantan",
          "sector_shangnan",
          "sector_sanlin"
        ],
        "areaSquareKilometers": 15.022453,
        "geometryRule": "固定 OSM 北蔡镇 relation 仅作起画外壳；取华夏西路—华夏中路派生道路走廊中线北侧，再扣除杨思前滩、上南、三林现有候选。",
        "outerEdgesStatus": "adjacent-review-required",
        "splitSide": "north",
        "splitEdgeId": "edge_beicai_yuqiao_huaxia_corridor_candidate",
        "splitRoadNames": [
          "华夏西路",
          "华夏中路"
        ],
        "splitLineMethod": "20m easting samples of median intersections across named OSM carriageways",
        "splitLineStatus": "selected-project-integrity-checked",
        "splitRoadOsmRefs": [
          "1118850763",
          "1118850767",
          "1206772269",
          "1210496329",
          "1218221798",
          "1228277328",
          "1233777182",
          "1332905234",
          "153242411",
          "160615400",
          "239293651",
          "239295889",
          "239295892",
          "239298152",
          "239298161",
          "239298164",
          "239298897",
          "239298898",
          "949762631"
        ],
        "selectedForAssembly": true,
        "assemblyReadiness": "conditional-ready",
        "projectIntegrityStatus": "passed-with-open-data-coverage-limitations",
        "unfrozenAdjacentSectorIds": [
          "sector_zhangjiang"
        ]
      },
      "geometry": {
        "type": "Polygon",
        "coordinates": [
          [
            [
              121.5200364,
              31.17318
            ],
            [
              121.5193089,
              31.1730403
            ],
            [
              121.5097399,
              31.1712753
            ],
            [
              121.5097363,
              31.1712926
            ],
            [
              121.5150332,
              31.1723091
            ],
            [
              121.514883,
              31.172713
            ],
            [
              121.5144861,
              31.1743561
            ],
            [
              121.5144753,
              31.1753292
            ],
            [
              121.5144431,
              31.1761461
            ],
            [
              121.5147303,
              31.1775448
            ],
            [
              121.5155911,
              31.1800932
            ],
            [
              121.5161938,
              31.181623
            ],
            [
              121.5193629,
              31.1897636
            ],
            [
              121.5204723,
              31.1896462
            ],
            [
              121.5217464,
              31.1895615
            ],
            [
              121.5228577,
              31.189507
            ],
            [
              121.5229123,
              31.1893467
            ],
            [
              121.5229995,
              31.1890903
            ],
            [
              121.5232329,
              31.1884049
            ],
            [
              121.5227799,
              31.1879689
            ],
            [
              121.5227925,
              31.1877963
            ],
            [
              121.5233957,
              31.1879144
            ],
            [
              121.5236173,
              31.1875051
            ],
            [
              121.5241453,
              31.1877367
            ],
            [
              121.5245424,
              31.1877085
            ],
            [
              121.5252213,
              31.187594
            ],
            [
              121.5255475,
              31.187539
            ],
            [
              121.5286608,
              31.1870461
            ],
            [
              121.5299702,
              31.1878965
            ],
            [
              121.5308958,
              31.187818
            ],
            [
              121.5320172,
              31.1885018
            ],
            [
              121.5327179,
              31.18852
            ],
            [
              121.5331851,
              31.188968
            ],
            [
              121.5332276,
              31.1897068
            ],
            [
              121.5365767,
              31.1894186
            ],
            [
              121.5415334,
              31.1896939
            ],
            [
              121.5484214,
              31.1907219
            ],
            [
              121.5553522,
              31.1915479
            ],
            [
              121.5635276,
              31.1925024
            ],
            [
              121.5673899,
              31.1930714
            ],
            [
              121.5744924,
              31.195274
            ],
            [
              121.5738487,
              31.1974215
            ],
            [
              121.5748144,
              31.1981006
            ],
            [
              121.575121,
              31.1982796
            ],
            [
              121.5759945,
              31.196513
            ],
            [
              121.5769333,
              31.1953566
            ],
            [
              121.5771693,
              31.194962
            ],
            [
              121.5773115,
              31.1948932
            ],
            [
              121.577577,
              31.1948519
            ],
            [
              121.5785962,
              31.1949849
            ],
            [
              121.5790683,
              31.1949207
            ],
            [
              121.5797308,
              31.1947165
            ],
            [
              121.5802726,
              31.1942645
            ],
            [
              121.5804926,
              31.1934224
            ],
            [
              121.580573,
              31.1933123
            ],
            [
              121.5807608,
              31.1932136
            ],
            [
              121.580978,
              31.1932251
            ],
            [
              121.5816841,
              31.1934285
            ],
            [
              121.5832713,
              31.1936955
            ],
            [
              121.5839955,
              31.1936381
            ],
            [
              121.5849477,
              31.1934339
            ],
            [
              121.5852535,
              31.1934156
            ],
            [
              121.5855458,
              31.1934293
            ],
            [
              121.5861963,
              31.1935268
            ],
            [
              121.5879934,
              31.1861419
            ],
            [
              121.5920837,
              31.1869129
            ],
            [
              121.5922084,
              31.1860525
            ],
            [
              121.592246,
              31.1859377
            ],
            [
              121.5927744,
              31.1851254
            ],
            [
              121.5938741,
              31.183962
            ],
            [
              121.5939599,
              31.1833723
            ],
            [
              121.5940605,
              31.1831342
            ],
            [
              121.5936609,
              31.1831429
            ],
            [
              121.5931432,
              31.1831199
            ],
            [
              121.592765,
              31.183097
            ],
            [
              121.5899339,
              31.1828285
            ],
            [
              121.5888523,
              31.182673
            ],
            [
              121.5876353,
              31.1824418
            ],
            [
              121.5873671,
              31.1823787
            ],
            [
              121.5864658,
              31.1821493
            ],
            [
              121.5857101,
              31.1819272
            ],
            [
              121.5855049,
              31.1818613
            ],
            [
              121.5831976,
              31.1810122
            ],
            [
              121.5826705,
              31.1808068
            ],
            [
              121.5814823,
              31.1803324
            ],
            [
              121.5857966,
              31.1737755
            ],
            [
              121.5862136,
              31.1732041
            ],
            [
              121.5860825,
              31.173163
            ],
            [
              121.5858736,
              31.1731011
            ],
            [
              121.5856646,
              31.1730415
            ],
            [
              121.5854557,
              31.1729785
            ],
            [
              121.5852468,
              31.1729155
            ],
            [
              121.5850379,
              31.1728524
            ],
            [
              121.584829,
              31.1727894
            ],
            [
              121.5846201,
              31.1727264
            ],
            [
              121.5844112,
              31.1726589
            ],
            [
              121.5842024,
              31.1725877
            ],
            [
              121.5839937,
              31.1725132
            ],
            [
              121.5837851,
              31.1724296
            ],
            [
              121.5835765,
              31.1723463
            ],
            [
              121.5833679,
              31.1722631
            ],
            [
              121.5831593,
              31.1721799
            ],
            [
              121.5829507,
              31.1720963
            ],
            [
              121.5827421,
              31.1720087
            ],
            [
              121.5825336,
              31.171921
            ],
            [
              121.582325,
              31.1718334
            ],
            [
              121.5821165,
              31.1717457
            ],
            [
              121.581908,
              31.1716581
            ],
            [
              121.5816994,
              31.1715727
            ],
            [
              121.5814908,
              31.1714884
            ],
            [
              121.5812822,
              31.1714041
            ],
            [
              121.5810736,
              31.1713193
            ],
            [
              121.5808651,
              31.1712341
            ],
            [
              121.5806565,
              31.1711489
            ],
            [
              121.5804479,
              31.1710662
            ],
            [
              121.5802392,
              31.1709882
            ],
            [
              121.5800305,
              31.1709102
            ],
            [
              121.5798218,
              31.1708318
            ],
            [
              121.5796132,
              31.1707517
            ],
            [
              121.5794045,
              31.1706716
            ],
            [
              121.5791959,
              31.1705914
            ],
            [
              121.5789872,
              31.1705122
            ],
            [
              121.5787786,
              31.1704331
            ],
            [
              121.5785699,
              31.1703538
            ],
            [
              121.5783613,
              31.1702745
            ],
            [
              121.5781526,
              31.1701953
            ],
            [
              121.5779439,
              31.170116
            ],
            [
              121.5777353,
              31.1700348
            ],
            [
              121.5775267,
              31.1699518
            ],
            [
              121.5773181,
              31.1698689
            ],
            [
              121.5771095,
              31.1697859
            ],
            [
              121.5769009,
              31.169703
            ],
            [
              121.5766923,
              31.1696199
            ],
            [
              121.5764837,
              31.1695352
            ],
            [
              121.5762752,
              31.1694505
            ],
            [
              121.5760666,
              31.1693656
            ],
            [
              121.5758581,
              31.1692789
            ],
            [
              121.5756495,
              31.1691921
            ],
            [
              121.575441,
              31.1691054
            ],
            [
              121.5752324,
              31.1690187
            ],
            [
              121.5750239,
              31.168932
            ],
            [
              121.5748154,
              31.1688453
            ],
            [
              121.5746068,
              31.1687586
            ],
            [
              121.5743983,
              31.1686719
            ],
            [
              121.5741897,
              31.1685892
            ],
            [
              121.5739811,
              31.1685075
            ],
            [
              121.5737724,
              31.1684302
            ],
            [
              121.5735636,
              31.1683576
            ],
            [
              121.5733549,
              31.168285
            ],
            [
              121.5731461,
              31.1682139
            ],
            [
              121.5729373,
              31.1681484
            ],
            [
              121.5727284,
              31.1680829
            ],
            [
              121.5725195,
              31.1680174
            ],
            [
              121.5723107,
              31.1679524
            ],
            [
              121.5721018,
              31.1678874
            ],
            [
              121.571893,
              31.1678225
            ],
            [
              121.5716841,
              31.1677582
            ],
            [
              121.5714751,
              31.1676997
            ],
            [
              121.5712662,
              31.1676415
            ],
            [
              121.5710572,
              31.1675833
            ],
            [
              121.5708482,
              31.167525
            ],
            [
              121.5706393,
              31.1674668
            ],
            [
              121.5704303,
              31.1674086
            ],
            [
              121.5702214,
              31.1673498
            ],
            [
              121.5700124,
              31.1672903
            ],
            [
              121.5698035,
              31.1672308
            ],
            [
              121.5695945,
              31.1671709
            ],
            [
              121.5693856,
              31.167111
            ],
            [
              121.5691767,
              31.1670512
            ],
            [
              121.5689677,
              31.1669913
            ],
            [
              121.5687588,
              31.1669314
            ],
            [
              121.5685499,
              31.1668717
            ],
            [
              121.5683409,
              31.1668147
            ],
            [
              121.5681319,
              31.1667603
            ],
            [
              121.5679229,
              31.1667066
            ],
            [
              121.5677138,
              31.166653
            ],
            [
              121.5675048,
              31.166598
            ],
            [
              121.5672958,
              31.1665413
            ],
            [
              121.5670869,
              31.1664847
            ],
            [
              121.5668779,
              31.166428
            ],
            [
              121.5666689,
              31.1663713
            ],
            [
              121.5664599,
              31.1663138
            ],
            [
              121.566251,
              31.1662549
            ],
            [
              121.566042,
              31.166196
            ],
            [
              121.565835,
              31.1660114
            ],
            [
              121.5656241,
              31.1660794
            ],
            [
              121.5654151,
              31.1660241
            ],
            [
              121.5652061,
              31.1659688
            ],
            [
              121.5649971,
              31.1659173
            ],
            [
              121.564788,
              31.1658694
            ],
            [
              121.5645789,
              31.1658216
            ],
            [
              121.5643698,
              31.1657737
            ],
            [
              121.5641605,
              31.1657345
            ],
            [
              121.5639512,
              31.1656986
            ],
            [
              121.5637419,
              31.1656627
            ],
            [
              121.5635326,
              31.1656268
            ],
            [
              121.5633234,
              31.1655909
            ],
            [
              121.563114,
              31.165556
            ],
            [
              121.5629046,
              31.1655277
            ],
            [
              121.5626952,
              31.1654993
            ],
            [
              121.5624858,
              31.165471
            ],
            [
              121.5622764,
              31.1654426
            ],
            [
              121.562067,
              31.1654143
            ],
            [
              121.5618576,
              31.165386
            ],
            [
              121.5616479,
              31.1653788
            ],
            [
              121.5614407,
              31.165206
            ],
            [
              121.5612318,
              31.1651466
            ],
            [
              121.5610198,
              31.1652905
            ],
            [
              121.5608103,
              31.1652663
            ],
            [
              121.5606008,
              31.165242
            ],
            [
              121.5603914,
              31.1652178
            ],
            [
              121.5601819,
              31.1651936
            ],
            [
              121.5599724,
              31.1651693
            ],
            [
              121.559763,
              31.1651451
            ],
            [
              121.5595535,
              31.1651208
            ],
            [
              121.559344,
              31.1650966
            ],
            [
              121.5591346,
              31.1650738
            ],
            [
              121.5589251,
              31.1650484
            ],
            [
              121.5587157,
              31.1650219
            ],
            [
              121.5585063,
              31.1649955
            ],
            [
              121.5582968,
              31.1649692
            ],
            [
              121.5580848,
              31.1651125
            ],
            [
              121.5578761,
              31.1650363
            ],
            [
              121.5576667,
              31.1650133
            ],
            [
              121.5574572,
              31.1649904
            ],
            [
              121.55725,
              31.1648185
            ],
            [
              121.5570403,
              31.1648092
            ],
            [
              121.5568306,
              31.1647999
            ],
            [
              121.5566211,
              31.1647782
            ],
            [
              121.5564116,
              31.1647546
            ],
            [
              121.5562021,
              31.1647311
            ],
            [
              121.5559927,
              31.1647075
            ],
            [
              121.5557832,
              31.164684
            ],
            [
              121.5555737,
              31.1646604
            ],
            [
              121.5553643,
              31.1646368
            ],
            [
              121.5551548,
              31.1646133
            ],
            [
              121.5549453,
              31.1645897
            ],
            [
              121.5547358,
              31.1645662
            ],
            [
              121.5545264,
              31.1645426
            ],
            [
              121.554317,
              31.1645149
            ],
            [
              121.5541076,
              31.1644851
            ],
            [
              121.5538982,
              31.1644554
            ],
            [
              121.5536888,
              31.1644256
            ],
            [
              121.5534795,
              31.1643959
            ],
            [
              121.5532682,
              31.1644928
            ],
            [
              121.5530588,
              31.1644629
            ],
            [
              121.5528494,
              31.1644331
            ],
            [
              121.55264,
              31.1644032
            ],
            [
              121.5524307,
              31.1643733
            ],
            [
              121.5522213,
              31.1643434
            ],
            [
              121.5520139,
              31.1641802
            ],
            [
              121.5518047,
              31.1641416
            ],
            [
              121.5515955,
              31.1641031
            ],
            [
              121.5513862,
              31.1640645
            ],
            [
              121.551177,
              31.1640259
            ],
            [
              121.5509677,
              31.1639873
            ],
            [
              121.5507585,
              31.1639468
            ],
            [
              121.5505494,
              31.1639038
            ],
            [
              121.5503402,
              31.1638592
            ],
            [
              121.5501311,
              31.1638145
            ],
            [
              121.5499219,
              31.1637699
            ],
            [
              121.5497128,
              31.1637253
            ],
            [
              121.5495036,
              31.1636807
            ],
            [
              121.5492945,
              31.1636363
            ],
            [
              121.5490853,
              31.1635953
            ],
            [
              121.5488761,
              31.1635544
            ],
            [
              121.5486669,
              31.1635135
            ],
            [
              121.5484577,
              31.1634725
            ],
            [
              121.5482485,
              31.1634316
            ],
            [
              121.5480393,
              31.1633907
            ],
            [
              121.5478301,
              31.1633498
            ],
            [
              121.5476209,
              31.1633083
            ],
            [
              121.5474118,
              31.1632605
            ],
            [
              121.5472027,
              31.1632126
            ],
            [
              121.5469936,
              31.1631641
            ],
            [
              121.5467845,
              31.1631146
            ],
            [
              121.5465755,
              31.1630651
            ],
            [
              121.5463664,
              31.1630155
            ],
            [
              121.5461573,
              31.162966
            ],
            [
              121.5459483,
              31.1629165
            ],
            [
              121.5457393,
              31.1628613
            ],
            [
              121.5455303,
              31.1628049
            ],
            [
              121.5453213,
              31.1627485
            ],
            [
              121.5451124,
              31.162692
            ],
            [
              121.5449034,
              31.1626356
            ],
            [
              121.5446945,
              31.1625791
            ],
            [
              121.5444855,
              31.1625227
            ],
            [
              121.5442765,
              31.1624662
            ],
            [
              121.5440676,
              31.1624098
            ],
            [
              121.5438586,
              31.1623534
            ],
            [
              121.5436497,
              31.1622938
            ],
            [
              121.5434409,
              31.162228
            ],
            [
              121.5432321,
              31.1621621
            ],
            [
              121.5430233,
              31.1620963
            ],
            [
              121.5428145,
              31.1620301
            ],
            [
              121.5426057,
              31.1619627
            ],
            [
              121.5423969,
              31.1618949
            ],
            [
              121.5421881,
              31.161827
            ],
            [
              121.5419793,
              31.161759
            ],
            [
              121.5417705,
              31.161691
            ],
            [
              121.5415617,
              31.1616241
            ],
            [
              121.5413529,
              31.1615589
            ],
            [
              121.5411441,
              31.161494
            ],
            [
              121.5409353,
              31.1614292
            ],
            [
              121.5407264,
              31.1613643
            ],
            [
              121.5406343,
              31.1613352
            ],
            [
              121.5406321,
              31.1613526
            ],
            [
              121.54062639718391,
              31.161376689481745
            ],
            [
              121.54062629518573,
              31.161377121838093
            ],
            [
              121.54062426714623,
              31.161382908153627
            ],
            [
              121.5406179,
              31.1614011
            ],
            [
              121.54060314960222,
              31.161437047765748
            ],
            [
              121.54057420049547,
              31.161507640407397
            ],
            [
              121.54057164685378,
              31.161513000886263
            ],
            [
              121.5405716,
              31.1615131
            ],
            [
              121.540618,
              31.1615282
            ],
            [
              121.54061815184441,
              31.161528250614804
            ],
            [
              121.54061857116265,
              31.161528382267132
            ],
            [
              121.54143995951874,
              31.161777527059485
            ],
            [
              121.5414402,
              31.1617776
            ],
            [
              121.54155858453981,
              31.161813386809886
            ],
            [
              121.541653900031,
              31.16184219998559
            ],
            [
              121.54165473635815,
              31.16184246979517
            ],
            [
              121.5428694,
              31.1622343
            ],
            [
              121.54286959247116,
              31.16223439623558
            ],
            [
              121.5428697878112,
              31.162234457814797
            ],
            [
              121.54322512035135,
              31.16234384333393
            ],
            [
              121.543651,
              31.1624749
            ],
            [
              121.543652,
              31.1624752
            ],
            [
              121.5470663,
              31.1633889
            ],
            [
              121.54706649294816,
              31.163388996474083
            ],
            [
              121.5470667160524,
              31.163389054377873
            ],
            [
              121.54763138592529,
              31.163531070092926
            ],
            [
              121.547633231216,
              31.163531472268218
            ],
            [
              121.54917178993712,
              31.163816098128066
            ],
            [
              121.54919983189265,
              31.163821275699856
            ],
            [
              121.549246,
              31.1638298
            ],
            [
              121.54924663364456,
              31.163829917244005
            ],
            [
              121.55059283995902,
              31.164078966853733
            ],
            [
              121.55059340331772,
              31.164079046409054
            ],
            [
              121.5505941,
              31.1640791
            ],
            [
              121.5505954,
              31.1640794
            ],
            [
              121.55066713816294,
              31.16409124666911
            ],
            [
              121.55079164288622,
              31.164111782082408
            ],
            [
              121.55033850002346,
              31.16548140002162
            ],
            [
              121.55033832082651,
              31.16548192939642
            ],
            [
              121.5501775,
              31.1659571
            ],
            [
              121.5501772,
              31.1659582
            ],
            [
              121.550177,
              31.1659593
            ],
            [
              121.55015010050546,
              31.166222695050635
            ],
            [
              121.55015009999937,
              31.16622270000838
            ],
            [
              121.55013286834532,
              31.166276185875617
            ],
            [
              121.5496363,
              31.1678175
            ],
            [
              121.5495453,
              31.168098
            ],
            [
              121.54952340458364,
              31.168165514018476
            ],
            [
              121.54937160003922,
              31.168633599962625
            ],
            [
              121.54937118982261,
              31.168634749596574
            ],
            [
              121.5490285,
              31.1695952
            ],
            [
              121.5490282,
              31.1695962
            ],
            [
              121.5485991,
              31.1710131
            ],
            [
              121.54845875951257,
              31.171444539487247
            ],
            [
              121.54836740002058,
              31.171725400030383
            ],
            [
              121.54836568179893,
              31.171730616683522
            ],
            [
              121.5481017,
              31.1725321
            ],
            [
              121.5481011,
              31.1725346
            ],
            [
              121.54792969928579,
              31.17343597786676
            ],
            [
              121.54792960002905,
              31.17343649999095
            ],
            [
              121.54789480120813,
              31.173602394248398
            ],
            [
              121.547894768184,
              31.173602551915927
            ],
            [
              121.5477065,
              31.1745015
            ],
            [
              121.5474747,
              31.1756396
            ],
            [
              121.54741191188732,
              31.175935914663103
            ],
            [
              121.54719150001615,
              31.176976099982667
            ],
            [
              121.54695991740317,
              31.178054587777964
            ],
            [
              121.54695987437286,
              31.178054856271455
            ],
            [
              121.5469598,
              31.1780556
            ],
            [
              121.54695970339638,
              31.178056566036247
            ],
            [
              121.54695970002847,
              31.178056629437908
            ],
            [
              121.54695970000114,
              31.178356699953213
            ],
            [
              121.5469597,
              31.178356699952978
            ],
            [
              121.5469597,
              31.1783567
            ],
            [
              121.5450804,
              31.1779676
            ],
            [
              121.54508008113585,
              31.17796752028396
            ],
            [
              121.54507964294991,
              31.177967435130963
            ],
            [
              121.5430200980979,
              31.177592999692795
            ],
            [
              121.54164848116983,
              31.177343515427864
            ],
            [
              121.5407605,
              31.177182
            ],
            [
              121.5302991,
              31.1751505
            ],
            [
              121.5291565518328,
              31.17493116352746
            ],
            [
              121.5291556996307,
              31.17493099994339
            ],
            [
              121.52554788629148,
              31.17423826242106
            ],
            [
              121.5200364,
              31.17318
            ]
          ]
        ]
      }
    },
    {
      "type": "Feature",
      "properties": {
        "id": "sector_yuqiao",
        "name": "御桥",
        "workpackId": "beicai-yuqiao",
        "status": "selected-workpack-candidate",
        "decisionStatus": "user-decided",
        "confidence": "low",
        "coordinateSystem": "WGS84",
        "workingCrs": "EPSG:32651",
        "geometrySourceSnapshotId": "osm-geofabrik-shanghai-260721",
        "sourceAdminRelationId": "14179101",
        "sourceAdminRelationRole": "non-final-market-envelope",
        "priorityClipSectorIds": [
          "sector_qiantan",
          "sector_shangnan",
          "sector_sanlin"
        ],
        "areaSquareKilometers": 4.996303,
        "geometryRule": "固定 OSM 北蔡镇 relation 仅作起画外壳；取华夏西路—华夏中路派生道路走廊中线南侧，再扣除杨思前滩、上南、三林现有候选；康桥、张江侧不冻结。",
        "outerEdgesStatus": "adjacent-review-required",
        "splitSide": "south",
        "splitEdgeId": "edge_beicai_yuqiao_huaxia_corridor_candidate",
        "splitRoadNames": [
          "华夏西路",
          "华夏中路"
        ],
        "splitLineMethod": "20m easting samples of median intersections across named OSM carriageways",
        "splitLineStatus": "selected-project-integrity-checked",
        "splitRoadOsmRefs": [
          "1118850763",
          "1118850767",
          "1206772269",
          "1210496329",
          "1218221798",
          "1228277328",
          "1233777182",
          "1332905234",
          "153242411",
          "160615400",
          "239293651",
          "239295889",
          "239295892",
          "239298152",
          "239298161",
          "239298164",
          "239298897",
          "239298898",
          "949762631"
        ],
        "selectedForAssembly": true,
        "assemblyReadiness": "conditional-ready",
        "projectIntegrityStatus": "passed-with-open-data-coverage-limitations",
        "unfrozenAdjacentSectorIds": [
          "sector_zhangjiang",
          "sector_kangqiao"
        ]
      },
      "geometry": {
        "type": "Polygon",
        "coordinates": [
          [
            [
              121.5406343,
              31.1613352
            ],
            [
              121.5407264,
              31.1613643
            ],
            [
              121.5409353,
              31.1614292
            ],
            [
              121.5411441,
              31.161494
            ],
            [
              121.5413529,
              31.1615589
            ],
            [
              121.5415617,
              31.1616241
            ],
            [
              121.5417705,
              31.161691
            ],
            [
              121.5419793,
              31.161759
            ],
            [
              121.5421881,
              31.161827
            ],
            [
              121.5423969,
              31.1618949
            ],
            [
              121.5426057,
              31.1619627
            ],
            [
              121.5428145,
              31.1620301
            ],
            [
              121.5430233,
              31.1620963
            ],
            [
              121.5432321,
              31.1621621
            ],
            [
              121.5434409,
              31.162228
            ],
            [
              121.5436497,
              31.1622938
            ],
            [
              121.5438586,
              31.1623534
            ],
            [
              121.5440676,
              31.1624098
            ],
            [
              121.5442765,
              31.1624662
            ],
            [
              121.5444855,
              31.1625227
            ],
            [
              121.5446945,
              31.1625791
            ],
            [
              121.5449034,
              31.1626356
            ],
            [
              121.5451124,
              31.162692
            ],
            [
              121.5453213,
              31.1627485
            ],
            [
              121.5455303,
              31.1628049
            ],
            [
              121.5457393,
              31.1628613
            ],
            [
              121.5459483,
              31.1629165
            ],
            [
              121.5461573,
              31.162966
            ],
            [
              121.5463664,
              31.1630155
            ],
            [
              121.5465755,
              31.1630651
            ],
            [
              121.5467845,
              31.1631146
            ],
            [
              121.5469936,
              31.1631641
            ],
            [
              121.5472027,
              31.1632126
            ],
            [
              121.5474118,
              31.1632605
            ],
            [
              121.5476209,
              31.1633083
            ],
            [
              121.5478301,
              31.1633498
            ],
            [
              121.5480393,
              31.1633907
            ],
            [
              121.5482485,
              31.1634316
            ],
            [
              121.5484577,
              31.1634725
            ],
            [
              121.5486669,
              31.1635135
            ],
            [
              121.5488761,
              31.1635544
            ],
            [
              121.5490853,
              31.1635953
            ],
            [
              121.5492945,
              31.1636363
            ],
            [
              121.5495036,
              31.1636807
            ],
            [
              121.5497128,
              31.1637253
            ],
            [
              121.5499219,
              31.1637699
            ],
            [
              121.5501311,
              31.1638145
            ],
            [
              121.5503402,
              31.1638592
            ],
            [
              121.5505494,
              31.1639038
            ],
            [
              121.5507585,
              31.1639468
            ],
            [
              121.5509677,
              31.1639873
            ],
            [
              121.551177,
              31.1640259
            ],
            [
              121.5513862,
              31.1640645
            ],
            [
              121.5515955,
              31.1641031
            ],
            [
              121.5518047,
              31.1641416
            ],
            [
              121.5520139,
              31.1641802
            ],
            [
              121.5522213,
              31.1643434
            ],
            [
              121.5524307,
              31.1643733
            ],
            [
              121.55264,
              31.1644032
            ],
            [
              121.5528494,
              31.1644331
            ],
            [
              121.5530588,
              31.1644629
            ],
            [
              121.5532682,
              31.1644928
            ],
            [
              121.5534795,
              31.1643959
            ],
            [
              121.5536888,
              31.1644256
            ],
            [
              121.5538982,
              31.1644554
            ],
            [
              121.5541076,
              31.1644851
            ],
            [
              121.554317,
              31.1645149
            ],
            [
              121.5545264,
              31.1645426
            ],
            [
              121.5547358,
              31.1645662
            ],
            [
              121.5549453,
              31.1645897
            ],
            [
              121.5551548,
              31.1646133
            ],
            [
              121.5553643,
              31.1646368
            ],
            [
              121.5555737,
              31.1646604
            ],
            [
              121.5557832,
              31.164684
            ],
            [
              121.5559927,
              31.1647075
            ],
            [
              121.5562021,
              31.1647311
            ],
            [
              121.5564116,
              31.1647546
            ],
            [
              121.5566211,
              31.1647782
            ],
            [
              121.5568306,
              31.1647999
            ],
            [
              121.5570403,
              31.1648092
            ],
            [
              121.55725,
              31.1648185
            ],
            [
              121.5574572,
              31.1649904
            ],
            [
              121.5576667,
              31.1650133
            ],
            [
              121.5578761,
              31.1650363
            ],
            [
              121.5580848,
              31.1651125
            ],
            [
              121.5582968,
              31.1649692
            ],
            [
              121.5585063,
              31.1649955
            ],
            [
              121.5587157,
              31.1650219
            ],
            [
              121.5589251,
              31.1650484
            ],
            [
              121.5591346,
              31.1650738
            ],
            [
              121.559344,
              31.1650966
            ],
            [
              121.5595535,
              31.1651208
            ],
            [
              121.559763,
              31.1651451
            ],
            [
              121.5599724,
              31.1651693
            ],
            [
              121.5601819,
              31.1651936
            ],
            [
              121.5603914,
              31.1652178
            ],
            [
              121.5606008,
              31.165242
            ],
            [
              121.5608103,
              31.1652663
            ],
            [
              121.5610198,
              31.1652905
            ],
            [
              121.5612318,
              31.1651466
            ],
            [
              121.5614407,
              31.165206
            ],
            [
              121.5616479,
              31.1653788
            ],
            [
              121.5618576,
              31.165386
            ],
            [
              121.562067,
              31.1654143
            ],
            [
              121.5622764,
              31.1654426
            ],
            [
              121.5624858,
              31.165471
            ],
            [
              121.5626952,
              31.1654993
            ],
            [
              121.5629046,
              31.1655277
            ],
            [
              121.563114,
              31.165556
            ],
            [
              121.5633234,
              31.1655909
            ],
            [
              121.5635326,
              31.1656268
            ],
            [
              121.5637419,
              31.1656627
            ],
            [
              121.5639512,
              31.1656986
            ],
            [
              121.5641605,
              31.1657345
            ],
            [
              121.5643698,
              31.1657737
            ],
            [
              121.5645789,
              31.1658216
            ],
            [
              121.564788,
              31.1658694
            ],
            [
              121.5649971,
              31.1659173
            ],
            [
              121.5652061,
              31.1659688
            ],
            [
              121.5654151,
              31.1660241
            ],
            [
              121.5656241,
              31.1660794
            ],
            [
              121.565835,
              31.1660114
            ],
            [
              121.566042,
              31.166196
            ],
            [
              121.566251,
              31.1662549
            ],
            [
              121.5664599,
              31.1663138
            ],
            [
              121.5666689,
              31.1663713
            ],
            [
              121.5668779,
              31.166428
            ],
            [
              121.5670869,
              31.1664847
            ],
            [
              121.5672958,
              31.1665413
            ],
            [
              121.5675048,
              31.166598
            ],
            [
              121.5677138,
              31.166653
            ],
            [
              121.5679229,
              31.1667066
            ],
            [
              121.5681319,
              31.1667603
            ],
            [
              121.5683409,
              31.1668147
            ],
            [
              121.5685499,
              31.1668717
            ],
            [
              121.5687588,
              31.1669314
            ],
            [
              121.5689677,
              31.1669913
            ],
            [
              121.5691767,
              31.1670512
            ],
            [
              121.5693856,
              31.167111
            ],
            [
              121.5695945,
              31.1671709
            ],
            [
              121.5698035,
              31.1672308
            ],
            [
              121.5700124,
              31.1672903
            ],
            [
              121.5702214,
              31.1673498
            ],
            [
              121.5704303,
              31.1674086
            ],
            [
              121.5706393,
              31.1674668
            ],
            [
              121.5708482,
              31.167525
            ],
            [
              121.5710572,
              31.1675833
            ],
            [
              121.5712662,
              31.1676415
            ],
            [
              121.5714751,
              31.1676997
            ],
            [
              121.5716841,
              31.1677582
            ],
            [
              121.571893,
              31.1678225
            ],
            [
              121.5721018,
              31.1678874
            ],
            [
              121.5723107,
              31.1679524
            ],
            [
              121.5725195,
              31.1680174
            ],
            [
              121.5727284,
              31.1680829
            ],
            [
              121.5729373,
              31.1681484
            ],
            [
              121.5731461,
              31.1682139
            ],
            [
              121.5733549,
              31.168285
            ],
            [
              121.5735636,
              31.1683576
            ],
            [
              121.5737724,
              31.1684302
            ],
            [
              121.5739811,
              31.1685075
            ],
            [
              121.5741897,
              31.1685892
            ],
            [
              121.5743983,
              31.1686719
            ],
            [
              121.5746068,
              31.1687586
            ],
            [
              121.5748154,
              31.1688453
            ],
            [
              121.5750239,
              31.168932
            ],
            [
              121.5752324,
              31.1690187
            ],
            [
              121.575441,
              31.1691054
            ],
            [
              121.5756495,
              31.1691921
            ],
            [
              121.5758581,
              31.1692789
            ],
            [
              121.5760666,
              31.1693656
            ],
            [
              121.5762752,
              31.1694505
            ],
            [
              121.5764837,
              31.1695352
            ],
            [
              121.5766923,
              31.1696199
            ],
            [
              121.5769009,
              31.169703
            ],
            [
              121.5771095,
              31.1697859
            ],
            [
              121.5773181,
              31.1698689
            ],
            [
              121.5775267,
              31.1699518
            ],
            [
              121.5777353,
              31.1700348
            ],
            [
              121.5779439,
              31.170116
            ],
            [
              121.5781526,
              31.1701953
            ],
            [
              121.5783613,
              31.1702745
            ],
            [
              121.5785699,
              31.1703538
            ],
            [
              121.5787786,
              31.1704331
            ],
            [
              121.5789872,
              31.1705122
            ],
            [
              121.5791959,
              31.1705914
            ],
            [
              121.5794045,
              31.1706716
            ],
            [
              121.5796132,
              31.1707517
            ],
            [
              121.5798218,
              31.1708318
            ],
            [
              121.5800305,
              31.1709102
            ],
            [
              121.5802392,
              31.1709882
            ],
            [
              121.5804479,
              31.1710662
            ],
            [
              121.5806565,
              31.1711489
            ],
            [
              121.5808651,
              31.1712341
            ],
            [
              121.5810736,
              31.1713193
            ],
            [
              121.5812822,
              31.1714041
            ],
            [
              121.5814908,
              31.1714884
            ],
            [
              121.5816994,
              31.1715727
            ],
            [
              121.581908,
              31.1716581
            ],
            [
              121.5821165,
              31.1717457
            ],
            [
              121.582325,
              31.1718334
            ],
            [
              121.5825336,
              31.171921
            ],
            [
              121.5827421,
              31.1720087
            ],
            [
              121.5829507,
              31.1720963
            ],
            [
              121.5831593,
              31.1721799
            ],
            [
              121.5833679,
              31.1722631
            ],
            [
              121.5835765,
              31.1723463
            ],
            [
              121.5837851,
              31.1724296
            ],
            [
              121.5839937,
              31.1725132
            ],
            [
              121.5842024,
              31.1725877
            ],
            [
              121.5844112,
              31.1726589
            ],
            [
              121.5846201,
              31.1727264
            ],
            [
              121.584829,
              31.1727894
            ],
            [
              121.5850379,
              31.1728524
            ],
            [
              121.5852468,
              31.1729155
            ],
            [
              121.5854557,
              31.1729785
            ],
            [
              121.5856646,
              31.1730415
            ],
            [
              121.5858736,
              31.1731011
            ],
            [
              121.5860825,
              31.173163
            ],
            [
              121.5862136,
              31.1732041
            ],
            [
              121.5863827,
              31.1729723
            ],
            [
              121.5864497,
              31.1726877
            ],
            [
              121.5864712,
              31.172075
            ],
            [
              121.5865543,
              31.1689745
            ],
            [
              121.5865785,
              31.1688712
            ],
            [
              121.587992,
              31.1661194
            ],
            [
              121.5882388,
              31.1655847
            ],
            [
              121.5888262,
              31.1615337
            ],
            [
              121.5852857,
              31.1607603
            ],
            [
              121.5826785,
              31.160292
            ],
            [
              121.5795994,
              31.1599523
            ],
            [
              121.5787625,
              31.1597136
            ],
            [
              121.5776253,
              31.1595484
            ],
            [
              121.5765953,
              31.159071
            ],
            [
              121.5746856,
              31.158667
            ],
            [
              121.5727866,
              31.1581253
            ],
            [
              121.5717566,
              31.1576112
            ],
            [
              121.5711772,
              31.1574459
            ],
            [
              121.5710217,
              31.1574253
            ],
            [
              121.5707749,
              31.1573702
            ],
            [
              121.5702223,
              31.157299
            ],
            [
              121.5697342,
              31.1572347
            ],
            [
              121.5693372,
              31.1572737
            ],
            [
              121.5687606,
              31.1573908
            ],
            [
              121.5683878,
              31.1573173
            ],
            [
              121.5685701,
              31.1566173
            ],
            [
              121.5680283,
              31.156514
            ],
            [
              121.5681463,
              31.1555706
            ],
            [
              121.5675252,
              31.1554776
            ],
            [
              121.5668447,
              31.1553666
            ],
            [
              121.5660021,
              31.1551023
            ],
            [
              121.5655337,
              31.1549727
            ],
            [
              121.5650807,
              31.1548267
            ],
            [
              121.5644073,
              31.1544069
            ],
            [
              121.5629482,
              31.1541498
            ],
            [
              121.562165,
              31.1539478
            ],
            [
              121.5620041,
              31.1541314
            ],
            [
              121.5610063,
              31.1538468
            ],
            [
              121.5587532,
              31.1532959
            ],
            [
              121.5577769,
              31.1532316
            ],
            [
              121.5576482,
              31.1548017
            ],
            [
              121.5576053,
              31.1550312
            ],
            [
              121.5538609,
              31.1542049
            ],
            [
              121.5521014,
              31.1538284
            ],
            [
              121.5509105,
              31.1536265
            ],
            [
              121.5489685,
              31.1531949
            ],
            [
              121.5487432,
              31.1531949
            ],
            [
              121.5483999,
              31.1533602
            ],
            [
              121.5479708,
              31.1539937
            ],
            [
              121.5474129,
              31.1544161
            ],
            [
              121.5466404,
              31.1544069
            ],
            [
              121.546222,
              31.1545354
            ],
            [
              121.5452135,
              31.1551598
            ],
            [
              121.5439582,
              31.1563442
            ],
            [
              121.5436363,
              31.1565553
            ],
            [
              121.5433466,
              31.1572531
            ],
            [
              121.5432072,
              31.1579233
            ],
            [
              121.5426063,
              31.1583181
            ],
            [
              121.542381,
              31.1585568
            ],
            [
              121.54108280000001,
              31.159199499999996
            ],
            [
              121.54108280000001,
              31.1591995
            ],
            [
              121.54061404217097,
              31.15949541054274
            ],
            [
              121.5404284,
              31.1596126
            ],
            [
              121.5401441,
              31.159709
            ],
            [
              121.54002921205198,
              31.159747956025992
            ],
            [
              121.5398598,
              31.159805400000003
            ],
            [
              121.53985979995376,
              31.15980540000709
            ],
            [
              121.5393786,
              31.1598792
            ],
            [
              121.5391409,
              31.1599156
            ],
            [
              121.53911826794301,
              31.159938850957253
            ],
            [
              121.53898000000001,
              31.160080900000008
            ],
            [
              121.539377,
              31.1605124
            ],
            [
              121.54001,
              31.1607603
            ],
            [
              121.5403104,
              31.1610173
            ],
            [
              121.5403149,
              31.1611405
            ],
            [
              121.54049145166391,
              31.161197854354096
            ],
            [
              121.5406335131139,
              31.161243971944597
            ],
            [
              121.54063564953285,
              31.161302628224725
            ],
            [
              121.54063521317804,
              31.16132767249
            ],
            [
              121.54063499060801,
              31.16132944493315
            ],
            [
              121.5406343,
              31.1613352
            ]
          ]
        ]
      }
    }
  ]
}
