{
  "type": "FeatureCollection",
  "name": "gumei-xinzhuang-chunshen-market-candidates",
  "crs": {
    "type": "name",
    "properties": {
      "name": "urn:ogc:def:crs:OGC:1.3:CRS84"
    }
  },
  "metadata": {
    "workpackId": "gumei-xinzhuang",
    "generatedAt": "2026-07-23",
    "coordinateSystem": "WGS84 / OGC:CRS84 longitude-latitude order",
    "status": "market-candidates-with-explicit-blockers",
    "publicationPolicy": "internal-review-only",
    "primaryFeatureIds": [
      "sector_gumei",
      "sector_xinzhuang",
      "sector_chunshen"
    ],
    "subscopeIdentityOnly": [
      {
        "id": "subscope_xinzhuang_north",
        "name": "莘庄北片",
        "parentSectorId": "sector_xinzhuang",
        "geometryStatus": "missing"
      },
      {
        "id": "subscope_xinzhuang_south",
        "name": "莘庄南片",
        "parentSectorId": "sector_xinzhuang",
        "geometryStatus": "missing"
      }
    ]
  },
  "features": [
    {
      "type": "Feature",
      "properties": {
        "id": "sector_gumei",
        "name": "古美",
        "canonicalName": "古美",
        "aliases": [
          "古美罗阳",
          "古美路"
        ],
        "workpackId": "gumei-xinzhuang",
        "status": "market-candidate-project-corrected",
        "confidence": "medium",
        "coordinateSystem": "WGS84",
        "geometrySourceSnapshotId": "osm-geofabrik-shanghai-260721",
        "method": "market-gumei_admin-outer-frame_fill-seller-consensus-project-holes",
        "definitionSourceIds": [
          "seller-anjuke-gumei-projects-2026-07-23",
          "seller-fang-gumei-projects-2026-07-23",
          "official-gumei-street-scope-2024",
          "osm-geofabrik-shanghai-260721"
        ],
        "areaSquareKilometers": 6.1169,
        "labelPoint": [
          121.3905002,
          31.1461914
        ],
        "publishableAsReviewedMarketSector": false,
        "includedMarketProjects": [
          "东兰小区",
          "华一新城",
          "同济华城"
        ],
        "candidateNotes": [
          "The two OSM administrative holes were filled to preserve complete seller-classified Gumei projects. Pingnan and the southern Gumei-Luoyang fringe remain outside pending a jointly evidenced outer edge with Meilong and Xinzhuang."
        ]
      },
      "geometry": {
        "type": "Polygon",
        "coordinates": [
          [
            [
              121.3725623,
              31.1597067
            ],
            [
              121.3741636,
              31.1561513
            ],
            [
              121.3758373,
              31.1494304
            ],
            [
              121.3763308,
              31.1459596
            ],
            [
              121.3770068,
              31.136538
            ],
            [
              121.3773072,
              31.135684
            ],
            [
              121.3810301,
              31.1286493
            ],
            [
              121.3890231,
              31.1305779
            ],
            [
              121.3861638,
              31.1421075
            ],
            [
              121.3915765,
              31.1434068
            ],
            [
              121.3952672,
              31.1458218
            ],
            [
              121.3966083,
              31.1419192
            ],
            [
              121.3983893,
              31.1382553
            ],
            [
              121.4017689,
              31.1409459
            ],
            [
              121.4020264,
              31.1416989
            ],
            [
              121.4042902,
              31.1427916
            ],
            [
              121.4050627,
              31.1434895
            ],
            [
              121.4052021,
              31.1440037
            ],
            [
              121.4046496,
              31.1464232
            ],
            [
              121.4047354,
              31.146662
            ],
            [
              121.40537,
              31.1468382
            ],
            [
              121.3980355,
              31.164045
            ],
            [
              121.3942369,
              31.162629
            ],
            [
              121.3899416,
              31.1614851
            ],
            [
              121.3923705,
              31.1545171
            ],
            [
              121.3837472,
              31.1521987
            ],
            [
              121.3819769,
              31.1590193
            ],
            [
              121.3801235,
              31.1589011
            ],
            [
              121.3725623,
              31.1597067
            ]
          ]
        ]
      }
    },
    {
      "type": "Feature",
      "properties": {
        "id": "sector_xinzhuang",
        "name": "莘庄",
        "canonicalName": "莘庄",
        "aliases": [
          "莘庄北广场",
          "莘庄南广场"
        ],
        "workpackId": "gumei-xinzhuang",
        "status": "market-candidate-project-corrected-topology-blocked",
        "confidence": "medium",
        "coordinateSystem": "WGS84",
        "geometrySourceSnapshotId": "osm-geofabrik-shanghai-260721",
        "method": "market-xinzhuang_town-backbone_minus-chunshen_keep-complete-xinzhuang-projects",
        "definitionSourceIds": [
          "seller-anjuke-xinzhuang-projects-2026-07-23",
          "seller-fang-xinzhuang-projects-2026-07-23",
          "official-xinzhuang-transport-plan-2024",
          "osm-geofabrik-shanghai-260721"
        ],
        "areaSquareKilometers": 17.1559,
        "labelPoint": [
          121.3682958,
          31.1171342
        ],
        "publishableAsReviewedMarketSector": false,
        "includedMarketProjects": [
          "名都新城四期",
          "名都新城",
          "柏林春天二期",
          "春申复地城柏林春天一期"
        ],
        "candidateNotes": [
          "North/south are subscopes only. MultiPolygon components preserve the adjudicated interleaved seller project attribution in the central internal-review assembly.",
          "New Meihua Garden east/west phases are removed and left unassigned because both seller families classify them as Gumei-Luoyang while the Gumei outer shared edge is unresolved.",
          "Two topology artifacts smaller than 100 square meters were removed from the candidate output."
        ]
      },
      "geometry": {
        "type": "MultiPolygon",
        "coordinates": [
          [
            [
              [
                121.3623939,
                31.0932265
              ],
              [
                121.3618116,
                31.0936023
              ],
              [
                121.3620102,
                31.0944563
              ],
              [
                121.3616203,
                31.0948935
              ],
              [
                121.360217,
                31.0981829
              ],
              [
                121.3588197,
                31.100558
              ],
              [
                121.3584979,
                31.101685
              ],
              [
                121.3579625,
                31.1024187
              ],
              [
                121.3544193,
                31.1015304
              ],
              [
                121.3538478,
                31.1026034
              ],
              [
                121.3536323,
                31.1026638
              ],
              [
                121.3516543,
                31.1020399
              ],
              [
                121.3467067,
                31.1010308
              ],
              [
                121.3441618,
                31.1081987
              ],
              [
                121.3432014,
                31.1078792
              ],
              [
                121.3427386,
                31.1089143
              ],
              [
                121.3436433,
                31.1093385
              ],
              [
                121.3441117,
                31.1083495
              ],
              [
                121.3452474,
                31.1086325
              ],
              [
                121.3448064,
                31.1097395
              ],
              [
                121.3450021,
                31.1097909
              ],
              [
                121.3471594,
                31.1096797
              ],
              [
                121.3474424,
                31.1087555
              ],
              [
                121.34871,
                31.1088607
              ],
              [
                121.3488098,
                31.1097081
              ],
              [
                121.3484118,
                31.1103088
              ],
              [
                121.352611,
                31.112542
              ],
              [
                121.3514742,
                31.114522
              ],
              [
                121.3491456,
                31.1134622
              ],
              [
                121.348047,
                31.1151863
              ],
              [
                121.3472606,
                31.1151918
              ],
              [
                121.3465197,
                31.1173444
              ],
              [
                121.3491408,
                31.1184911
              ],
              [
                121.3479059,
                31.120366
              ],
              [
                121.3456155,
                31.1198464
              ],
              [
                121.3446512,
                31.1197694
              ],
              [
                121.3423755,
                31.1235227
              ],
              [
                121.3431297,
                31.1238617
              ],
              [
                121.3405231,
                31.1276086
              ],
              [
                121.3426423,
                31.1285575
              ],
              [
                121.342138,
                31.128732
              ],
              [
                121.3421059,
                31.1289708
              ],
              [
                121.3424706,
                31.1292371
              ],
              [
                121.3440263,
                31.1297789
              ],
              [
                121.3485002,
                31.1320749
              ],
              [
                121.3490689,
                31.1314963
              ],
              [
                121.3613154,
                31.1366357
              ],
              [
                121.3618055,
                31.1356624
              ],
              [
                121.3663477,
                31.1378696
              ],
              [
                121.3733992,
                31.1388774
              ],
              [
                121.3721587,
                31.1409534
              ],
              [
                121.37663744195731,
                31.141685845761938
              ],
              [
                121.3770068,
                31.136538
              ],
              [
                121.3773072,
                31.135684
              ],
              [
                121.3810301,
                31.1286493
              ],
              [
                121.38874891982191,
                31.130511744127176
              ],
              [
                121.3902569,
                31.1306422
              ],
              [
                121.3926172,
                31.1299075
              ],
              [
                121.3944626,
                31.1290626
              ],
              [
                121.3908577,
                31.1254073
              ],
              [
                121.3873279,
                31.1206038
              ],
              [
                121.3890552,
                31.1203283
              ],
              [
                121.3890016,
                31.1198782
              ],
              [
                121.3892786,
                31.11908
              ],
              [
                121.389663,
                31.118181
              ],
              [
                121.3902153,
                31.1176124
              ],
              [
                121.3898405,
                31.1173519
              ],
              [
                121.3901532,
                31.1169241
              ],
              [
                121.390617,
                31.1168305
              ],
              [
                121.391968,
                31.1152018
              ],
              [
                121.3912627,
                31.1148414
              ],
              [
                121.3917756,
                31.1142075
              ],
              [
                121.39193505659975,
                31.11427356980965
              ],
              [
                121.3917815,
                31.1142099
              ],
              [
                121.3914821,
                31.1140859
              ],
              [
                121.3911824,
                31.1139599
              ],
              [
                121.3908818,
                31.1138331
              ],
              [
                121.3905806,
                31.1136991
              ],
              [
                121.3902881,
                31.1135555
              ],
              [
                121.390001,
                31.1134085
              ],
              [
                121.3897127,
                31.1132659
              ],
              [
                121.3894211,
                31.1131305
              ],
              [
                121.3891257,
                31.1129979
              ],
              [
                121.3888295,
                31.1128676
              ],
              [
                121.3885327,
                31.1127378
              ],
              [
                121.3882337,
                31.1126133
              ],
              [
                121.3879326,
                31.1124935
              ],
              [
                121.3876298,
                31.1123784
              ],
              [
                121.387325,
                31.1122687
              ],
              [
                121.3870191,
                31.1121632
              ],
              [
                121.3867129,
                31.112054
              ],
              [
                121.3864099,
                31.1119392
              ],
              [
                121.3861068,
                31.1118241
              ],
              [
                121.3858054,
                31.1117024
              ],
              [
                121.3855049,
                31.1115809
              ],
              [
                121.385205,
                31.1114572
              ],
              [
                121.3849056,
                31.1113332
              ],
              [
                121.3846062,
                31.1112093
              ],
              [
                121.3843067,
                31.1110853
              ],
              [
                121.3840081,
                31.1109588
              ],
              [
                121.3837104,
                31.110831
              ],
              [
                121.3834127,
                31.1107033
              ],
              [
                121.3834862,
                31.1105712
              ],
              [
                121.3835598,
                31.1104391
              ],
              [
                121.3836333,
                31.110307
              ],
              [
                121.3837068,
                31.1101749
              ],
              [
                121.3837804,
                31.1100429
              ],
              [
                121.3838539,
                31.1099108
              ],
              [
                121.3839274,
                31.1097787
              ],
              [
                121.384001,
                31.1096466
              ],
              [
                121.3840745,
                31.1095145
              ],
              [
                121.3841482,
                31.1093828
              ],
              [
                121.3842223,
                31.109251
              ],
              [
                121.3842964,
                31.1091193
              ],
              [
                121.3843705,
                31.1089875
              ],
              [
                121.3844445,
                31.1088558
              ],
              [
                121.3845186,
                31.108724
              ],
              [
                121.3845927,
                31.1085923
              ],
              [
                121.3846668,
                31.1084605
              ],
              [
                121.3847409,
                31.1083288
              ],
              [
                121.384815,
                31.108197
              ],
              [
                121.384889,
                31.1080653
              ],
              [
                121.3849631,
                31.1079335
              ],
              [
                121.3850368,
                31.1078004
              ],
              [
                121.3851099,
                31.1076681
              ],
              [
                121.385183,
                31.1075357
              ],
              [
                121.3852562,
                31.1074034
              ],
              [
                121.3853293,
                31.1072711
              ],
              [
                121.3854025,
                31.1071388
              ],
              [
                121.3854756,
                31.1070065
              ],
              [
                121.3855488,
                31.1068741
              ],
              [
                121.3856219,
                31.1067418
              ],
              [
                121.3856951,
                31.1066095
              ],
              [
                121.3857682,
                31.1064772
              ],
              [
                121.3858414,
                31.1063449
              ],
              [
                121.3859145,
                31.1062125
              ],
              [
                121.3859877,
                31.1060802
              ],
              [
                121.3860608,
                31.1059479
              ],
              [
                121.386134,
                31.1058156
              ],
              [
                121.3862071,
                31.1056832
              ],
              [
                121.3862807,
                31.1055492
              ],
              [
                121.3863529,
                31.1054163
              ],
              [
                121.386425,
                31.1052834
              ],
              [
                121.3864972,
                31.1051505
              ],
              [
                121.3865694,
                31.1050176
              ],
              [
                121.3866415,
                31.1048847
              ],
              [
                121.3867137,
                31.1047518
              ],
              [
                121.3867916,
                31.1046074
              ],
              [
                121.386857,
                31.104471
              ],
              [
                121.3869245,
                31.1043234
              ],
              [
                121.3869836,
                31.1041845
              ],
              [
                121.3870427,
                31.1040456
              ],
              [
                121.3871018,
                31.1039067
              ],
              [
                121.3871609,
                31.1037678
              ],
              [
                121.3872201,
                31.1036289
              ],
              [
                121.3872792,
                31.10349
              ],
              [
                121.3873383,
                31.1033511
              ],
              [
                121.3873974,
                31.1032122
              ],
              [
                121.3874565,
                31.1030733
              ],
              [
                121.3875156,
                31.1029344
              ],
              [
                121.3875747,
                31.1027956
              ],
              [
                121.3876339,
                31.1026567
              ],
              [
                121.387693,
                31.1025178
              ],
              [
                121.3877521,
                31.1023789
              ],
              [
                121.3878113,
                31.10224
              ],
              [
                121.3878704,
                31.1021011
              ],
              [
                121.3879294,
                31.1019622
              ],
              [
                121.3879885,
                31.1018233
              ],
              [
                121.3880477,
                31.1016844
              ],
              [
                121.3881075,
                31.1015464
              ],
              [
                121.3881683,
                31.1014081
              ],
              [
                121.388229,
                31.1012698
              ],
              [
                121.3882898,
                31.1011315
              ],
              [
                121.3883503,
                31.1009928
              ],
              [
                121.3884078,
                31.1008534
              ],
              [
                121.3884653,
                31.1007139
              ],
              [
                121.3885228,
                31.1005745
              ],
              [
                121.3885803,
                31.1004351
              ],
              [
                121.3886392,
                31.100295
              ],
              [
                121.3886999,
                31.1001567
              ],
              [
                121.3887607,
                31.1000184
              ],
              [
                121.3888215,
                31.0998801
              ],
              [
                121.3888846,
                31.0997408
              ],
              [
                121.3889486,
                31.0996039
              ],
              [
                121.3890154,
                31.0994657
              ],
              [
                121.3890831,
                31.0993303
              ],
              [
                121.3891524,
                31.0991939
              ],
              [
                121.3892227,
                31.09906
              ],
              [
                121.3892933,
                31.0989258
              ],
              [
                121.3893641,
                31.0987922
              ],
              [
                121.3894349,
                31.0986585
              ],
              [
                121.38950103714399,
                31.098533605421604
              ],
              [
                121.369518,
                31.0925954
              ],
              [
                121.3681984,
                31.0951678
              ],
              [
                121.3623939,
                31.0932265
              ]
            ],
            [
              [
                121.3802629,
                31.1276976
              ],
              [
                121.381651,
                31.12542
              ],
              [
                121.3825331,
                31.1257697
              ],
              [
                121.3813103,
                31.1279909
              ],
              [
                121.3802629,
                31.1276976
              ]
            ],
            [
              [
                121.3814925,
                31.1279781
              ],
              [
                121.3820283,
                31.1269271
              ],
              [
                121.3831802,
                31.1272058
              ],
              [
                121.3835564,
                31.1265398
              ],
              [
                121.3837196,
                31.1262524
              ],
              [
                121.3850124,
                31.1267748
              ],
              [
                121.3845684,
                31.1275611
              ],
              [
                121.3839889,
                31.1286016
              ],
              [
                121.3827172,
                31.128284
              ],
              [
                121.3814925,
                31.1279781
              ]
            ]
          ],
          [
            [
              [
                121.3913847,
                31.1026523
              ],
              [
                121.3913157,
                31.1022683
              ],
              [
                121.3910167,
                31.1019237
              ],
              [
                121.388487,
                31.1011262
              ],
              [
                121.387866,
                31.1026227
              ],
              [
                121.3904303,
                31.1033907
              ],
              [
                121.3908557,
                31.1033415
              ],
              [
                121.3911547,
                31.1031052
              ],
              [
                121.3913847,
                31.1026523
              ]
            ]
          ],
          [
            [
              [
                121.3931305,
                31.1036774
              ],
              [
                121.3914054,
                31.1031785
              ],
              [
                121.3908965,
                31.1035685
              ],
              [
                121.3909294,
                31.1037589
              ],
              [
                121.3908637,
                31.1039623
              ],
              [
                121.390753,
                31.1041147
              ],
              [
                121.3905511,
                31.1041555
              ],
              [
                121.3903828,
                31.1041016
              ],
              [
                121.3898786,
                31.1052548
              ],
              [
                121.3908837,
                31.1056912
              ],
              [
                121.3913368,
                31.1046124
              ],
              [
                121.3925166,
                31.104892
              ],
              [
                121.3931305,
                31.1036774
              ]
            ]
          ],
          [
            [
              [
                121.3844444,
                31.1094769
              ],
              [
                121.3865707,
                31.1102827
              ],
              [
                121.3892897,
                31.1055075
              ],
              [
                121.3870936,
                31.1047016
              ],
              [
                121.3844444,
                31.1094769
              ]
            ]
          ],
          [
            [
              [
                121.3837872,
                31.1106465
              ],
              [
                121.386072,
                31.1115306
              ],
              [
                121.3866086,
                31.1105699
              ],
              [
                121.3842791,
                31.1096371
              ],
              [
                121.3837872,
                31.1106465
              ]
            ]
          ]
        ]
      }
    },
    {
      "type": "Feature",
      "properties": {
        "id": "sector_chunshen",
        "name": "春申",
        "canonicalName": "春申",
        "aliases": [
          "梅陇春申"
        ],
        "workpackId": "gumei-xinzhuang",
        "status": "market-candidate-project-corrected-topology-blocked",
        "confidence": "medium",
        "coordinateSystem": "WGS84",
        "geometrySourceSnapshotId": "osm-geofabrik-shanghai-260721",
        "method": "market-chunshen_named-road-frame_with-complete-project-inclusions-and-exclusions",
        "definitionSourceIds": [
          "seller-anjuke-chunshen-projects-2026-07-23",
          "seller-fang-chunshen-projects-2026-07-23",
          "official-xinzhuang-subcenter-2021",
          "osm-geofabrik-shanghai-260721"
        ],
        "areaSquareKilometers": 7.4145,
        "labelPoint": [
          121.4062333,
          31.1097249
        ],
        "publishableAsReviewedMarketSector": false,
        "includedMarketProjects": [
          "春申景城",
          "春申景城湖滨晨韵",
          "春申景城湖畔林语",
          "高兴花园一街坊",
          "高兴花园二三四街坊",
          "高兴花园五街坊",
          "上海春城",
          "中海寰宇天下",
          "莘南花苑二村东区",
          "莘南花苑一街坊",
          "莘南花苑一村",
          "莘南花苑商办楼"
        ],
        "candidateNotes": [
          "Road frame follows Dushi Road, Xinzhu Road, Hongmei South Road and Yindu Road from the fixed OSM snapshot. Complete seller-classified projects override the frame."
        ]
      },
      "geometry": {
        "type": "Polygon",
        "coordinates": [
          [
            [
              121.3912725,
              31.0951813
            ],
            [
              121.391202,
              31.0953151
            ],
            [
              121.3911314,
              31.0954489
            ],
            [
              121.3910609,
              31.0955827
            ],
            [
              121.3909903,
              31.0957166
            ],
            [
              121.3909198,
              31.0958504
            ],
            [
              121.3908493,
              31.0959842
            ],
            [
              121.3907787,
              31.096118
            ],
            [
              121.3907082,
              31.0962518
            ],
            [
              121.3906377,
              31.0963857
            ],
            [
              121.3905671,
              31.0965195
            ],
            [
              121.3904966,
              31.0966533
            ],
            [
              121.390426,
              31.096787
            ],
            [
              121.3903552,
              31.0969207
            ],
            [
              121.3902844,
              31.0970544
            ],
            [
              121.3902136,
              31.0971881
            ],
            [
              121.3901429,
              31.0973217
            ],
            [
              121.3900721,
              31.0974554
            ],
            [
              121.3900013,
              31.0975891
            ],
            [
              121.3899305,
              31.0977228
            ],
            [
              121.3898597,
              31.0978564
            ],
            [
              121.3897889,
              31.0979901
            ],
            [
              121.3897181,
              31.0981238
            ],
            [
              121.3896473,
              31.0982575
            ],
            [
              121.3895765,
              31.0983911
            ],
            [
              121.3895057,
              31.0985248
            ],
            [
              121.3894349,
              31.0986585
            ],
            [
              121.3893641,
              31.0987922
            ],
            [
              121.3892933,
              31.0989258
            ],
            [
              121.3892227,
              31.09906
            ],
            [
              121.3891524,
              31.0991939
            ],
            [
              121.3890831,
              31.0993303
            ],
            [
              121.3890154,
              31.0994657
            ],
            [
              121.3889486,
              31.0996039
            ],
            [
              121.3888846,
              31.0997408
            ],
            [
              121.3888215,
              31.0998801
            ],
            [
              121.3887607,
              31.1000184
            ],
            [
              121.3886999,
              31.1001567
            ],
            [
              121.3886392,
              31.100295
            ],
            [
              121.3885803,
              31.1004351
            ],
            [
              121.3885228,
              31.1005745
            ],
            [
              121.3884653,
              31.1007139
            ],
            [
              121.3884078,
              31.1008534
            ],
            [
              121.3883503,
              31.1009928
            ],
            [
              121.3882898,
              31.1011315
            ],
            [
              121.388229,
              31.1012698
            ],
            [
              121.3881683,
              31.1014081
            ],
            [
              121.3881075,
              31.1015464
            ],
            [
              121.3880477,
              31.1016844
            ],
            [
              121.3879885,
              31.1018233
            ],
            [
              121.3879294,
              31.1019622
            ],
            [
              121.3878704,
              31.1021011
            ],
            [
              121.3878113,
              31.10224
            ],
            [
              121.3877521,
              31.1023789
            ],
            [
              121.387693,
              31.1025178
            ],
            [
              121.3876339,
              31.1026567
            ],
            [
              121.3875747,
              31.1027956
            ],
            [
              121.3875156,
              31.1029344
            ],
            [
              121.3874565,
              31.1030733
            ],
            [
              121.3873974,
              31.1032122
            ],
            [
              121.3873383,
              31.1033511
            ],
            [
              121.3872792,
              31.10349
            ],
            [
              121.3872201,
              31.1036289
            ],
            [
              121.3871609,
              31.1037678
            ],
            [
              121.3871018,
              31.1039067
            ],
            [
              121.3870427,
              31.1040456
            ],
            [
              121.3869836,
              31.1041845
            ],
            [
              121.3869245,
              31.1043234
            ],
            [
              121.386857,
              31.104471
            ],
            [
              121.3867916,
              31.1046074
            ],
            [
              121.3867137,
              31.1047518
            ],
            [
              121.3866415,
              31.1048847
            ],
            [
              121.3865694,
              31.1050176
            ],
            [
              121.3864972,
              31.1051505
            ],
            [
              121.386425,
              31.1052834
            ],
            [
              121.3863529,
              31.1054163
            ],
            [
              121.3862807,
              31.1055492
            ],
            [
              121.3862071,
              31.1056832
            ],
            [
              121.386134,
              31.1058156
            ],
            [
              121.3860608,
              31.1059479
            ],
            [
              121.3859877,
              31.1060802
            ],
            [
              121.3859145,
              31.1062125
            ],
            [
              121.3858414,
              31.1063449
            ],
            [
              121.3857682,
              31.1064772
            ],
            [
              121.3856951,
              31.1066095
            ],
            [
              121.3856219,
              31.1067418
            ],
            [
              121.3855488,
              31.1068741
            ],
            [
              121.3854756,
              31.1070065
            ],
            [
              121.3854025,
              31.1071388
            ],
            [
              121.3853293,
              31.1072711
            ],
            [
              121.3852562,
              31.1074034
            ],
            [
              121.385183,
              31.1075357
            ],
            [
              121.3851099,
              31.1076681
            ],
            [
              121.3850368,
              31.1078004
            ],
            [
              121.3849631,
              31.1079335
            ],
            [
              121.384889,
              31.1080653
            ],
            [
              121.384815,
              31.108197
            ],
            [
              121.3847409,
              31.1083288
            ],
            [
              121.3846668,
              31.1084605
            ],
            [
              121.3845927,
              31.1085923
            ],
            [
              121.3845186,
              31.108724
            ],
            [
              121.3844445,
              31.1088558
            ],
            [
              121.3843705,
              31.1089875
            ],
            [
              121.3842964,
              31.1091193
            ],
            [
              121.3842223,
              31.109251
            ],
            [
              121.3841482,
              31.1093828
            ],
            [
              121.3840745,
              31.1095145
            ],
            [
              121.384001,
              31.1096466
            ],
            [
              121.3839274,
              31.1097787
            ],
            [
              121.3838539,
              31.1099108
            ],
            [
              121.3837804,
              31.1100429
            ],
            [
              121.3837068,
              31.1101749
            ],
            [
              121.3836333,
              31.110307
            ],
            [
              121.3835598,
              31.1104391
            ],
            [
              121.3834862,
              31.1105712
            ],
            [
              121.3834127,
              31.1107033
            ],
            [
              121.3837104,
              31.110831
            ],
            [
              121.3840081,
              31.1109588
            ],
            [
              121.3843067,
              31.1110853
            ],
            [
              121.3846062,
              31.1112093
            ],
            [
              121.3849056,
              31.1113332
            ],
            [
              121.385205,
              31.1114572
            ],
            [
              121.3855049,
              31.1115809
            ],
            [
              121.3858054,
              31.1117024
            ],
            [
              121.3861068,
              31.1118241
            ],
            [
              121.3864099,
              31.1119392
            ],
            [
              121.3867129,
              31.112054
            ],
            [
              121.3870191,
              31.1121632
            ],
            [
              121.387325,
              31.1122687
            ],
            [
              121.3876298,
              31.1123784
            ],
            [
              121.3879326,
              31.1124935
            ],
            [
              121.3882337,
              31.1126133
            ],
            [
              121.3885327,
              31.1127378
            ],
            [
              121.3888295,
              31.1128676
            ],
            [
              121.3891257,
              31.1129979
            ],
            [
              121.3894211,
              31.1131305
            ],
            [
              121.3897127,
              31.1132659
            ],
            [
              121.390001,
              31.1134085
            ],
            [
              121.3902881,
              31.1135555
            ],
            [
              121.3905806,
              31.1136991
            ],
            [
              121.3908818,
              31.1138331
            ],
            [
              121.3911824,
              31.1139599
            ],
            [
              121.3914821,
              31.1140859
            ],
            [
              121.3917815,
              31.1142099
            ],
            [
              121.3920808,
              31.114334
            ],
            [
              121.3923802,
              31.114458
            ],
            [
              121.3926796,
              31.1145821
            ],
            [
              121.392979,
              31.1147061
            ],
            [
              121.3932852,
              31.1148108
            ],
            [
              121.3935839,
              31.1149365
            ],
            [
              121.3938825,
              31.1150622
            ],
            [
              121.3941812,
              31.1151879
            ],
            [
              121.3944798,
              31.1153136
            ],
            [
              121.3947804,
              31.1154389
            ],
            [
              121.395084,
              31.115562
            ],
            [
              121.3954061,
              31.1156834
            ],
            [
              121.3957127,
              31.1157699
            ],
            [
              121.3960148,
              31.1158728
            ],
            [
              121.3962989,
              31.1159856
            ],
            [
              121.3966183,
              31.1161186
            ],
            [
              121.3969261,
              31.116218
            ],
            [
              121.3972339,
              31.1163174
            ],
            [
              121.3975519,
              31.1163911
            ],
            [
              121.3978584,
              31.1164885
            ],
            [
              121.398167,
              31.1165865
            ],
            [
              121.3984752,
              31.1166837
            ],
            [
              121.3987834,
              31.1167812
            ],
            [
              121.3990916,
              31.1168787
            ],
            [
              121.3993751,
              31.1170546
            ],
            [
              121.3996833,
              31.1171521
            ],
            [
              121.3999915,
              31.11725
            ],
            [
              121.4002995,
              31.1173483
            ],
            [
              121.4006076,
              31.1174466
            ],
            [
              121.4009156,
              31.1175449
            ],
            [
              121.4012237,
              31.1176432
            ],
            [
              121.4015317,
              31.1177415
            ],
            [
              121.4018398,
              31.1178398
            ],
            [
              121.402148,
              31.1179381
            ],
            [
              121.4023909,
              31.1180004
            ],
            [
              121.402777,
              31.1180976
            ],
            [
              121.4030846,
              31.1181973
            ],
            [
              121.4033923,
              31.118297
            ],
            [
              121.4036966,
              31.1183939
            ],
            [
              121.4040101,
              31.1184945
            ],
            [
              121.4043148,
              31.1185929
            ],
            [
              121.4046228,
              31.1186913
            ],
            [
              121.4049309,
              31.1187896
            ],
            [
              121.4052389,
              31.1188879
            ],
            [
              121.4055472,
              31.1189863
            ],
            [
              121.4058552,
              31.1190848
            ],
            [
              121.4061632,
              31.1191833
            ],
            [
              121.4064712,
              31.1192818
            ],
            [
              121.4067792,
              31.1193803
            ],
            [
              121.4070872,
              31.1194788
            ],
            [
              121.4073952,
              31.1195772
            ],
            [
              121.4077032,
              31.1196757
            ],
            [
              121.4080094,
              31.1197731
            ],
            [
              121.4083176,
              31.1198706
            ],
            [
              121.4086259,
              31.119968
            ],
            [
              121.4089341,
              31.1200654
            ],
            [
              121.4092424,
              31.1201629
            ],
            [
              121.4095506,
              31.1202603
            ],
            [
              121.4098589,
              31.1203577
            ],
            [
              121.4101671,
              31.1204552
            ],
            [
              121.4107331,
              31.1212081
            ],
            [
              121.4108793,
              31.1212273
            ],
            [
              121.411191,
              31.1212683
            ],
            [
              121.4115205,
              31.121313
            ],
            [
              121.4118714,
              31.1213765
            ],
            [
              121.4122109,
              31.1214673
            ],
            [
              121.4125688,
              31.1215923
            ],
            [
              121.412886,
              31.1217232
            ],
            [
              121.4132006,
              31.1218679
            ],
            [
              121.4134912,
              31.1220093
            ],
            [
              121.4137836,
              31.1221526
            ],
            [
              121.4140734,
              31.1222953
            ],
            [
              121.4143632,
              31.1224379
            ],
            [
              121.4146531,
              31.1225806
            ],
            [
              121.4149429,
              31.1227232
            ],
            [
              121.4152328,
              31.1228659
            ],
            [
              121.4155226,
              31.1230085
            ],
            [
              121.4158125,
              31.1231512
            ],
            [
              121.4161023,
              31.1232938
            ],
            [
              121.4163922,
              31.1234365
            ],
            [
              121.416682,
              31.1235791
            ],
            [
              121.4169722,
              31.1237231
            ],
            [
              121.4172614,
              31.1238668
            ],
            [
              121.4175507,
              31.1240105
            ],
            [
              121.4178399,
              31.1241542
            ],
            [
              121.4181291,
              31.1242979
            ],
            [
              121.4184183,
              31.1244416
            ],
            [
              121.4187075,
              31.1245853
            ],
            [
              121.4189968,
              31.124729
            ],
            [
              121.419286,
              31.1248727
            ],
            [
              121.4195752,
              31.1250164
            ],
            [
              121.4196699,
              31.1248738
            ],
            [
              121.4197646,
              31.1247311
            ],
            [
              121.4198592,
              31.1245885
            ],
            [
              121.4199539,
              31.1244459
            ],
            [
              121.420074,
              31.1241904
            ],
            [
              121.4200908,
              31.124125
            ],
            [
              121.420185,
              31.1239819
            ],
            [
              121.4202792,
              31.1238387
            ],
            [
              121.4203733,
              31.1236956
            ],
            [
              121.4204762,
              31.123521
            ],
            [
              121.4205584,
              31.123359
            ],
            [
              121.420638,
              31.1231936
            ],
            [
              121.420711,
              31.1230345
            ],
            [
              121.4207844,
              31.1228707
            ],
            [
              121.4208583,
              31.1226814
            ],
            [
              121.4209166,
              31.1225161
            ],
            [
              121.4209749,
              31.1223508
            ],
            [
              121.4210332,
              31.1221855
            ],
            [
              121.4210914,
              31.1220203
            ],
            [
              121.4211497,
              31.121855
            ],
            [
              121.421208,
              31.1216897
            ],
            [
              121.4212662,
              31.1215244
            ],
            [
              121.4213245,
              31.1213591
            ],
            [
              121.4213828,
              31.1211938
            ],
            [
              121.4214334,
              31.1210574
            ],
            [
              121.4214677,
              31.1209838
            ],
            [
              121.421593,
              31.1207056
            ],
            [
              121.4216489,
              31.1205397
            ],
            [
              121.4217049,
              31.1203737
            ],
            [
              121.4217609,
              31.1202077
            ],
            [
              121.4218168,
              31.1200417
            ],
            [
              121.4218728,
              31.1198757
            ],
            [
              121.4219287,
              31.1197097
            ],
            [
              121.4219847,
              31.1195437
            ],
            [
              121.4220407,
              31.1193777
            ],
            [
              121.4220966,
              31.1192118
            ],
            [
              121.4221526,
              31.1190458
            ],
            [
              121.4222085,
              31.1188798
            ],
            [
              121.4222645,
              31.1187138
            ],
            [
              121.4223205,
              31.1185478
            ],
            [
              121.4223764,
              31.1183818
            ],
            [
              121.4224324,
              31.1182196
            ],
            [
              121.4224911,
              31.1180546
            ],
            [
              121.4225499,
              31.1178895
            ],
            [
              121.4226087,
              31.1177243
            ],
            [
              121.4226674,
              31.1175592
            ],
            [
              121.4227262,
              31.1173941
            ],
            [
              121.422785,
              31.117229
            ],
            [
              121.4228447,
              31.1170606
            ],
            [
              121.4229004,
              31.1168945
            ],
            [
              121.4229561,
              31.1167285
            ],
            [
              121.4230118,
              31.1165624
            ],
            [
              121.4230675,
              31.1163964
            ],
            [
              121.4231233,
              31.1162303
            ],
            [
              121.4231784,
              31.1160632
            ],
            [
              121.4232331,
              31.1158969
            ],
            [
              121.4232879,
              31.1157306
            ],
            [
              121.4233396,
              31.1155604
            ],
            [
              121.4233954,
              31.1153989
            ],
            [
              121.4234527,
              31.1152333
            ],
            [
              121.4235101,
              31.1150677
            ],
            [
              121.4235674,
              31.1149022
            ],
            [
              121.4236248,
              31.1147366
            ],
            [
              121.4236821,
              31.114571
            ],
            [
              121.4237395,
              31.1144054
            ],
            [
              121.4237968,
              31.1142399
            ],
            [
              121.4238541,
              31.1140743
            ],
            [
              121.4239115,
              31.1139087
            ],
            [
              121.4239688,
              31.1137431
            ],
            [
              121.4240262,
              31.1135776
            ],
            [
              121.4240835,
              31.113412
            ],
            [
              121.4241408,
              31.1132464
            ],
            [
              121.4241982,
              31.1130808
            ],
            [
              121.4242555,
              31.1129153
            ],
            [
              121.4243128,
              31.1127497
            ],
            [
              121.4243702,
              31.1125841
            ],
            [
              121.424427,
              31.1124187
            ],
            [
              121.4244783,
              31.1122515
            ],
            [
              121.4245295,
              31.1120843
            ],
            [
              121.4245807,
              31.1119171
            ],
            [
              121.424632,
              31.1117499
            ],
            [
              121.4246832,
              31.1115827
            ],
            [
              121.4247344,
              31.1114155
            ],
            [
              121.4247856,
              31.1112482
            ],
            [
              121.4248369,
              31.111081
            ],
            [
              121.4248913,
              31.110912
            ],
            [
              121.4249463,
              31.1107458
            ],
            [
              121.4252587,
              31.1106654
            ],
            [
              121.4253147,
              31.1104996
            ],
            [
              121.4253708,
              31.1103337
            ],
            [
              121.4254269,
              31.1101677
            ],
            [
              121.425483,
              31.1100018
            ],
            [
              121.4255397,
              31.1098367
            ],
            [
              121.4255969,
              31.1096711
            ],
            [
              121.425654,
              31.1095054
            ],
            [
              121.4257112,
              31.1093398
            ],
            [
              121.4257684,
              31.1091742
            ],
            [
              121.4258255,
              31.1090085
            ],
            [
              121.4258827,
              31.1088429
            ],
            [
              121.4259398,
              31.1086773
            ],
            [
              121.4259973,
              31.1085127
            ],
            [
              121.4260574,
              31.108348
            ],
            [
              121.4261176,
              31.1081834
            ],
            [
              121.4261778,
              31.1080187
            ],
            [
              121.426238,
              31.1078541
            ],
            [
              121.4262981,
              31.1076894
            ],
            [
              121.4263583,
              31.1075248
            ],
            [
              121.4264185,
              31.1073601
            ],
            [
              121.4264787,
              31.1071955
            ],
            [
              121.4265388,
              31.1070308
            ],
            [
              121.426599,
              31.1068662
            ],
            [
              121.4266592,
              31.1067015
            ],
            [
              121.4267193,
              31.1065369
            ],
            [
              121.4267795,
              31.1063722
            ],
            [
              121.4268397,
              31.1062076
            ],
            [
              121.4268998,
              31.1060429
            ],
            [
              121.42696,
              31.1058783
            ],
            [
              121.4270202,
              31.1057136
            ],
            [
              121.4270852,
              31.1055506
            ],
            [
              121.4271509,
              31.1053881
            ],
            [
              121.4268912,
              31.1053169
            ],
            [
              121.4266326,
              31.1052415
            ],
            [
              121.4263745,
              31.1051648
            ],
            [
              121.4261164,
              31.105088
            ],
            [
              121.4258583,
              31.1050113
            ],
            [
              121.4256002,
              31.1049345
            ],
            [
              121.4253421,
              31.1048577
            ],
            [
              121.425084,
              31.104781
            ],
            [
              121.4248259,
              31.1047042
            ],
            [
              121.4245678,
              31.1046275
            ],
            [
              121.4243097,
              31.1045508
            ],
            [
              121.4240516,
              31.104474
            ],
            [
              121.4237935,
              31.1043973
            ],
            [
              121.4235354,
              31.1043205
            ],
            [
              121.4232773,
              31.1042438
            ],
            [
              121.4230192,
              31.104167
            ],
            [
              121.4227611,
              31.1040903
            ],
            [
              121.422503,
              31.1040135
            ],
            [
              121.4222449,
              31.1039368
            ],
            [
              121.4219868,
              31.10386
            ],
            [
              121.4217287,
              31.1037833
            ],
            [
              121.4214706,
              31.1037065
            ],
            [
              121.4212124,
              31.1036298
            ],
            [
              121.4209543,
              31.103553
            ],
            [
              121.4206962,
              31.1034763
            ],
            [
              121.4204375,
              31.1034009
            ],
            [
              121.4201787,
              31.1033265
            ],
            [
              121.4199199,
              31.1032521
            ],
            [
              121.4196611,
              31.1031777
            ],
            [
              121.4194023,
              31.1031033
            ],
            [
              121.4191448,
              31.103026
            ],
            [
              121.4188873,
              31.1029473
            ],
            [
              121.4186298,
              31.1028686
            ],
            [
              121.4183701,
              31.1027945
            ],
            [
              121.4181127,
              31.102718
            ],
            [
              121.4178551,
              31.1026395
            ],
            [
              121.4175965,
              31.102563
            ],
            [
              121.4173379,
              31.102488
            ],
            [
              121.4170793,
              31.1024129
            ],
            [
              121.4168207,
              31.1023379
            ],
            [
              121.4165621,
              31.1022628
            ],
            [
              121.4163034,
              31.1021878
            ],
            [
              121.4160448,
              31.1021127
            ],
            [
              121.415784,
              31.1020415
            ],
            [
              121.4155227,
              31.1019777
            ],
            [
              121.4152614,
              31.101914
            ],
            [
              121.415,
              31.1018502
            ],
            [
              121.4147387,
              31.1017864
            ],
            [
              121.4144773,
              31.1017227
            ],
            [
              121.414216,
              31.1016589
            ],
            [
              121.4139547,
              31.1015951
            ],
            [
              121.4136933,
              31.1015314
            ],
            [
              121.413432,
              31.1014676
            ],
            [
              121.4131707,
              31.1014038
            ],
            [
              121.4129093,
              31.1013401
            ],
            [
              121.4126482,
              31.1012769
            ],
            [
              121.4123867,
              31.1012138
            ],
            [
              121.4121279,
              31.1011521
            ],
            [
              121.4118656,
              31.1010943
            ],
            [
              121.4116054,
              31.1010381
            ],
            [
              121.4113414,
              31.100982
            ],
            [
              121.4110788,
              31.1009258
            ],
            [
              121.4108162,
              31.1008696
            ],
            [
              121.410546,
              31.1008017
            ],
            [
              121.4102852,
              31.1007354
            ],
            [
              121.4100244,
              31.100669
            ],
            [
              121.4097636,
              31.1006027
            ],
            [
              121.4095028,
              31.1005363
            ],
            [
              121.409242,
              31.1004699
            ],
            [
              121.4088836,
              31.1003425
            ],
            [
              121.408725,
              31.10028
            ],
            [
              121.4084666,
              31.1002041
            ],
            [
              121.4082083,
              31.1001282
            ],
            [
              121.4079499,
              31.1000523
            ],
            [
              121.4076916,
              31.0999765
            ],
            [
              121.4074332,
              31.0999006
            ],
            [
              121.4071748,
              31.0998247
            ],
            [
              121.4069165,
              31.0997488
            ],
            [
              121.4066581,
              31.0996729
            ],
            [
              121.4063998,
              31.099597
            ],
            [
              121.4061433,
              31.099523
            ],
            [
              121.4058852,
              31.0994502
            ],
            [
              121.4056259,
              31.0993777
            ],
            [
              121.4053666,
              31.0993053
            ],
            [
              121.4051073,
              31.0992328
            ],
            [
              121.4048466,
              31.0991582
            ],
            [
              121.4045878,
              31.099084
            ],
            [
              121.4043289,
              31.0990098
            ],
            [
              121.4040701,
              31.0989356
            ],
            [
              121.4038112,
              31.0988614
            ],
            [
              121.4035531,
              31.0987884
            ],
            [
              121.403294,
              31.0987151
            ],
            [
              121.4030349,
              31.0986418
            ],
            [
              121.4027758,
              31.0985685
            ],
            [
              121.4025174,
              31.0984956
            ],
            [
              121.4022581,
              31.098423
            ],
            [
              121.4019988,
              31.0983504
            ],
            [
              121.4017395,
              31.0982778
            ],
            [
              121.4014802,
              31.0982052
            ],
            [
              121.4011945,
              31.0981211
            ],
            [
              121.4009439,
              31.0980249
            ],
            [
              121.4006934,
              31.0979287
            ],
            [
              121.4004429,
              31.0978326
            ],
            [
              121.4001923,
              31.0977364
            ],
            [
              121.3999418,
              31.0976402
            ],
            [
              121.3996913,
              31.097544
            ],
            [
              121.3994407,
              31.0974478
            ],
            [
              121.3991902,
              31.0973516
            ],
            [
              121.3989397,
              31.0972554
            ],
            [
              121.3986892,
              31.0971592
            ],
            [
              121.3984382,
              31.0970626
            ],
            [
              121.3981887,
              31.0969642
            ],
            [
              121.3979392,
              31.0968659
            ],
            [
              121.3976898,
              31.0967675
            ],
            [
              121.3974828,
              31.0966859
            ],
            [
              121.3961347,
              31.0963252
            ],
            [
              121.3916252,
              31.0945122
            ],
            [
              121.3915547,
              31.094646
            ],
            [
              121.3914841,
              31.0947798
            ],
            [
              121.3914136,
              31.0949137
            ],
            [
              121.391343,
              31.0950475
            ],
            [
              121.3912725,
              31.0951813
            ]
          ],
          [
            [
              121.3904303,
              31.1033907
            ],
            [
              121.387866,
              31.1026227
            ],
            [
              121.388487,
              31.1011262
            ],
            [
              121.3910167,
              31.1019237
            ],
            [
              121.3913157,
              31.1022683
            ],
            [
              121.3913847,
              31.1026523
            ],
            [
              121.3911547,
              31.1031052
            ],
            [
              121.3908557,
              31.1033415
            ],
            [
              121.3904303,
              31.1033907
            ]
          ],
          [
            [
              121.3908837,
              31.1056912
            ],
            [
              121.3898786,
              31.1052548
            ],
            [
              121.3903828,
              31.1041016
            ],
            [
              121.3905511,
              31.1041555
            ],
            [
              121.390753,
              31.1041147
            ],
            [
              121.3908637,
              31.1039623
            ],
            [
              121.3909294,
              31.1037589
            ],
            [
              121.3908965,
              31.1035685
            ],
            [
              121.3914054,
              31.1031785
            ],
            [
              121.3931305,
              31.1036774
            ],
            [
              121.3925166,
              31.104892
            ],
            [
              121.3913368,
              31.1046124
            ],
            [
              121.3908837,
              31.1056912
            ]
          ],
          [
            [
              121.3865707,
              31.1102827
            ],
            [
              121.3844444,
              31.1094769
            ],
            [
              121.3870936,
              31.1047016
            ],
            [
              121.3892897,
              31.1055075
            ],
            [
              121.3865707,
              31.1102827
            ]
          ],
          [
            [
              121.386072,
              31.1115306
            ],
            [
              121.3837872,
              31.1106465
            ],
            [
              121.3842791,
              31.1096371
            ],
            [
              121.3866086,
              31.1105699
            ],
            [
              121.386072,
              31.1115306
            ]
          ]
        ]
      }
    }
  ]
}
