{
  "type": "FeatureCollection",
  "name": "central-user-boundaries",
  "properties": {
    "workpackId": "central-user-boundaries",
    "candidateStatus": "selected-market-candidate",
    "coordinateSystem": "OGC:CRS84",
    "commercialGeometryCopied": false
  },
  "schemaVersion": "1.0.0",
  "sourceSnapshotId": "osm-geofabrik-shanghai-260721",
  "license": "ODbL-1.0",
  "attribution": "© OpenStreetMap contributors",
  "features": [
    {
      "type": "Feature",
      "properties": {
        "id": "sector_zhongshangongyuan",
        "sectorId": "sector_zhongshangongyuan",
        "name": "中山公园",
        "candidateStatus": "selected-market-candidate",
        "selectedForAssembly": true,
        "reviewStatus": "draft-medium",
        "coordinateSystem": "OGC:CRS84",
        "geometrySourceSnapshotId": "osm-geofabrik-shanghai-260721",
        "geometryMethod": "user_decided_market_scope_from_locked_osm_routes",
        "geometryRule": "用户裁定：南延安高架路、西内环高架路、东江苏路、北苏州河；西北保留滨水凹口。",
        "areaSquareKilometers": 3.3562,
        "labelPoint": [
          121.416662,
          31.219216
        ],
        "routeOsmRefs": {
          "内环高架路": [
            "10359255",
            "10365328",
            "10587414",
            "10673273",
            "10673281",
            "1178481663",
            "1178481664",
            "11947084",
            "11947111",
            "11947115",
            "1334955913",
            "1334955914",
            "1334955922",
            "1337115415",
            "1337115416",
            "1337115425",
            "1337115426",
            "1368740249",
            "1370898763",
            "148734982",
            "160265722",
            "176876589",
            "187781669",
            "44472954",
            "44472955",
            "44472956",
            "44472957",
            "456608305",
            "47096741",
            "47096748",
            "47096752",
            "493167483",
            "493167758",
            "9201689",
            "9371912",
            "9930124"
          ],
          "江苏路": [
            "1073705836",
            "1119184627",
            "1322939163",
            "1322939165",
            "14788300",
            "438751959",
            "438751961",
            "47451481",
            "610738421",
            "610738424",
            "686283610",
            "85796876"
          ],
          "延安高架路": [
            "10359259",
            "10359260",
            "10676525",
            "10676532",
            "10689609",
            "10728688",
            "10728694",
            "11635067",
            "11635095",
            "11635146",
            "1290456016",
            "1290456017",
            "1290456018",
            "1290456019",
            "1337646274",
            "1337646275",
            "178702239",
            "178702243",
            "47053612",
            "47097206",
            "493164864",
            "513082635",
            "513082641",
            "513082670",
            "9196162",
            "9196165",
            "9196168",
            "9196170",
            "9196180",
            "9197204",
            "9792174",
            "9833223"
          ],
          "苏州河": [
            "1005345489"
          ]
        }
      },
      "geometry": {
        "type": "Polygon",
        "coordinates": [
          [
            [
              121.41883975063746,
              31.230087148640287
            ],
            [
              121.41843064832203,
              31.229707913174234
            ],
            [
              121.41821145615152,
              31.229480315589498
            ],
            [
              121.4178842555498,
              31.229100462224306
            ],
            [
              121.41708573484068,
              31.22806924195287
            ],
            [
              121.41690111255652,
              31.227846488262607
            ],
            [
              121.41668709200226,
              31.227624003790925
            ],
            [
              121.41644735044036,
              31.22742050777827
            ],
            [
              121.41618036058856,
              31.227252039184457
            ],
            [
              121.41589204476422,
              31.227122279324853
            ],
            [
              121.41567738144747,
              31.227076963644908
            ],
            [
              121.41545837196578,
              31.22707191925745
            ],
            [
              121.41525179780055,
              31.22710175976941
            ],
            [
              121.41507469258337,
              31.227158576039045
            ],
            [
              121.41489493297462,
              31.22726118752955
            ],
            [
              121.41456822789753,
              31.227519318305614
            ],
            [
              121.4131858232018,
              31.22885212075916
            ],
            [
              121.41224159830675,
              31.229769566402656
            ],
            [
              121.41134037688231,
              31.230393442040945
            ],
            [
              121.41069664873261,
              31.230466767906616
            ],
            [
              121.41021423774241,
              31.230417230804385
            ],
            [
              121.41022463913748,
              31.2302098698765
            ],
            [
              121.41056793889504,
              31.22947599280006
            ],
            [
              121.41122373563202,
              31.228172944292993
            ],
            [
              121.41145774310476,
              31.227250341531775
            ],
            [
              121.41142623576657,
              31.22646681394141
            ],
            [
              121.4112622504391,
              31.226210026505118
            ],
            [
              121.41091114997698,
              31.225842941594276
            ],
            [
              121.4100099484519,
              31.225439284202736
            ],
            [
              121.40865256069179,
              31.224895468117538
            ],
            [
              121.40861269732154,
              31.224881262391936
            ],
            [
              121.40831851865259,
              31.22477667291002
            ],
            [
              121.40722053121429,
              31.224521756975125
            ],
            [
              121.40626261605271,
              31.224415344306074
            ],
            [
              121.40625836538771,
              31.224349616671216
            ],
            [
              121.40624949067454,
              31.22420913548719
            ],
            [
              121.40624050950949,
              31.224068743193687
            ],
            [
              121.40623047881499,
              31.223928337888434
            ],
            [
              121.40621751092849,
              31.223787805960875
            ],
            [
              121.40620454155707,
              31.223647364224448
            ],
            [
              121.4061915722146,
              31.223506922485072
            ],
            [
              121.406178602901,
              31.22336648074273
            ],
            [
              121.406165740084,
              31.223225950104258
            ],
            [
              121.40615277082807,
              31.22308550835602
            ],
            [
              121.40613980160103,
              31.222945066604787
            ],
            [
              121.4061274636372,
              31.22280454246221
            ],
            [
              121.40611921736338,
              31.222664159247927
            ],
            [
              121.4061108661514,
              31.222523774730043
            ],
            [
              121.40610262142137,
              31.222383301316363
            ],
            [
              121.40609437519238,
              31.222242918094114
            ],
            [
              121.40608602402568,
              31.22210253356828
            ],
            [
              121.40607777934046,
              31.22196206014662
            ],
            [
              121.40606942820402,
              31.22182167561547
            ],
            [
              121.4060611820349,
              31.22168129238262
            ],
            [
              121.4060528324425,
              31.221540817652055
            ],
            [
              121.40605445177749,
              31.221400556704094
            ],
            [
              121.40605649090499,
              31.221260300956807
            ],
            [
              121.40605853153075,
              31.221119955012224
            ],
            [
              121.40606057062718,
              31.22097969925856
            ],
            [
              121.40606260970809,
              31.22083944350174
            ],
            [
              121.40606465028722,
              31.220699097547612
            ],
            [
              121.40606668933705,
              31.220558841784417
            ],
            [
              121.40606872837135,
              31.220418586018056
            ],
            [
              121.40607076739015,
              31.220278330248497
            ],
            [
              121.40607448711447,
              31.220138005095933
            ],
            [
              121.40608775578231,
              31.219997888514136
            ],
            [
              121.40610112935171,
              31.219857773227574
            ],
            [
              121.40611450438588,
              31.21971756774121
            ],
            [
              121.40613448969759,
              31.219577534395277
            ],
            [
              121.40615499968945,
              31.219437507545326
            ],
            [
              121.40617540617554,
              31.21929738919217
            ],
            [
              121.40619581107852,
              31.219157361024962
            ],
            [
              121.40622461185026,
              31.219017436908057
            ],
            [
              121.40625362393959,
              31.21887742518613
            ],
            [
              121.40628263442075,
              31.21873750364598
            ],
            [
              121.40631164480726,
              31.218597582093455
            ],
            [
              121.40634065661247,
              31.21845757033439
            ],
            [
              121.4063696668096,
              31.218317648757118
            ],
            [
              121.40639867691208,
              31.218177727167472
            ],
            [
              121.40642768843317,
              31.218037715371292
            ],
            [
              121.40646708819872,
              31.21789792250566
            ],
            [
              121.40650858679645,
              31.217758155630108
            ],
            [
              121.40655008526316,
              31.2176183887341
            ],
            [
              121.40659148016441,
              31.21747853032308
            ],
            [
              121.40663329321144,
              31.21733876728717
            ],
            [
              121.40668381674779,
              31.217199112154592
            ],
            [
              121.40673465648119,
              31.217059370700706
            ],
            [
              121.4067854945436,
              31.216919719412925
            ],
            [
              121.40683748686264,
              31.216780082398664
            ],
            [
              121.40689787626405,
              31.216640459168527
            ],
            [
              121.40695836891356,
              31.216500927395373
            ],
            [
              121.40701875643089,
              31.216361394284807
            ],
            [
              121.40707914527518,
              31.216221770942738
            ],
            [
              121.4071396373673,
              31.216082239057478
            ],
            [
              121.40720002432768,
              31.215942705835
            ],
            [
              121.4072629313124,
              31.21580311357528
            ],
            [
              121.4073280404491,
              31.21566363876362
            ],
            [
              121.40739304444124,
              31.215524162609963
            ],
            [
              121.40745815469191,
              31.215384597519392
            ],
            [
              121.40752315828614,
              31.215245121281185
            ],
            [
              121.40759151992081,
              31.21510568658372
            ],
            [
              121.40766177186583,
              31.214966185035223
            ],
            [
              121.40773191714031,
              31.214826772333364
            ],
            [
              121.40780269186834,
              31.214687367379042
            ],
            [
              121.40787608999041,
              31.21454799485619
            ],
            [
              121.40794518668793,
              31.21440847882175
            ],
            [
              121.40800504658455,
              31.214268938614367
            ],
            [
              121.40805304763381,
              31.214129251577678
            ],
            [
              121.40809790173157,
              31.213989435350715
            ],
            [
              121.40813257464613,
              31.213849583294493
            ],
            [
              121.40816525352372,
              31.21370970654254
            ],
            [
              121.40818659992959,
              31.213569599298474
            ],
            [
              121.4082016481624,
              31.21342950430585
            ],
            [
              121.4082166963414,
              31.21328940930701
            ],
            [
              121.40822964712089,
              31.213149198130214
            ],
            [
              121.40822633022375,
              31.21300887581819
            ],
            [
              121.4082128339006,
              31.212868427512856
            ],
            [
              121.40818915970812,
              31.212727763018133
            ],
            [
              121.40815236628693,
              31.21258702634899
            ],
            [
              121.40811158516715,
              31.21244624031028
            ],
            [
              121.40807017601921,
              31.212305356271578
            ],
            [
              121.40802005530836,
              31.212164454597698
            ],
            [
              121.40796888532164,
              31.2120235399159
            ],
            [
              121.40791771698957,
              31.211882535021584
            ],
            [
              121.40786654728926,
              31.21174162030342
            ],
            [
              121.40781800126011,
              31.21160073804586
            ],
            [
              121.40777228877218,
              31.21145989084989
            ],
            [
              121.40771776289522,
              31.211318844310522
            ],
            [
              121.40766459988834,
              31.21117790483526
            ],
            [
              121.4076126963165,
              31.211036980931972
            ],
            [
              121.40756089934214,
              31.210895968114993
            ],
            [
              121.40750910100117,
              31.210755045473714
            ],
            [
              121.40745835220534,
              31.21061413580788
            ],
            [
              121.40741106807847,
              31.21047317881145
            ],
            [
              121.40736756040025,
              31.210332358774775
            ],
            [
              121.40733013933533,
              31.21019161409577
            ],
            [
              121.4072942939749,
              31.21005079870518
            ],
            [
              121.40726348428237,
              31.209910135877614
            ],
            [
              121.40724379821296,
              31.20976961079581
            ],
            [
              121.40722526803245,
              31.20962900981086
            ],
            [
              121.40721103887428,
              31.20948855229882
            ],
            [
              121.40721076658258,
              31.20934826762637
            ],
            [
              121.40721039085568,
              31.209207891457098
            ],
            [
              121.40721253212737,
              31.209067636668518
            ],
            [
              121.40722338324856,
              31.208927489738628
            ],
            [
              121.40723423584022,
              31.20878725260946
            ],
            [
              121.40724508687846,
              31.208647105669698
            ],
            [
              121.4072584563794,
              31.20850698991283
            ],
            [
              121.40727308508173,
              31.20836688974405
            ],
            [
              121.40728761030599,
              31.208226698075375
            ],
            [
              121.40730213396613,
              31.20808659659502
            ],
            [
              121.40731488155495,
              31.2079647863708
            ],
            [
              121.40739633499665,
              31.208020824953014
            ],
            [
              121.40753102120907,
              31.208113337177096
            ],
            [
              121.4076657031517,
              31.208206119850793
            ],
            [
              121.40780027437671,
              31.208299261869485
            ],
            [
              121.40793495080548,
              31.208392405053907
            ],
            [
              121.40806952256297,
              31.208485546806102
            ],
            [
              121.40820419952446,
              31.20857868972379
            ],
            [
              121.40833887675237,
              31.208671832508067
            ],
            [
              121.40847344779785,
              31.208765064054813
            ],
            [
              121.40860812404792,
              31.208858296766756
            ],
            [
              121.40874269562642,
              31.20895152804697
            ],
            [
              121.40887746756522,
              31.209039078244455
            ],
            [
              121.40901228282453,
              31.20911778795734
            ],
            [
              121.4091473708769,
              31.20918648725303
            ],
            [
              121.40928247724929,
              31.209254104079644
            ],
            [
              121.40941749095896,
              31.209320997916908
            ],
            [
              121.40955264452695,
              31.209385818443856
            ],
            [
              121.40968775826046,
              31.20944675917595
            ],
            [
              121.40982310844059,
              31.209499854152217
            ],
            [
              121.40995851462539,
              31.209549611796103
            ],
            [
              121.41009381299979,
              31.209599548393495
            ],
            [
              121.41022937794085,
              31.209639835342895
            ],
            [
              121.41036483655448,
              31.209680211050475
            ],
            [
              121.41050046360225,
              31.209716799748144
            ],
            [
              121.41063618732225,
              31.209747615859623
            ],
            [
              121.41077184240481,
              31.209776265866463
            ],
            [
              121.4109076040232,
              31.209804826834883
            ],
            [
              121.41104326079002,
              31.209833386366142
            ],
            [
              121.41117902258398,
              31.20986194705324
            ],
            [
              121.41131467801819,
              31.209890596497907
            ],
            [
              121.41145043998785,
              31.209919156903698
            ],
            [
              121.41158620204531,
              31.209947717168763
            ],
            [
              121.41172185925106,
              31.209976275997242
            ],
            [
              121.41185761997649,
              31.210004926175536
            ],
            [
              121.41199327735785,
              31.21003348472289
            ],
            [
              121.4121290397666,
              31.210062044425342
            ],
            [
              121.41226480226317,
              31.210090603987073
            ],
            [
              121.41240045840068,
              31.21011925230727
            ],
            [
              121.41253622107293,
              31.210147811587678
            ],
            [
              121.41267187889319,
              31.210176369432236
            ],
            [
              121.41280764023426,
              31.210205018625878
            ],
            [
              121.41294329973675,
              31.21023348599477
            ],
            [
              121.41307906426664,
              31.21026195451794
            ],
            [
              121.4132148303904,
              31.210290332705803
            ],
            [
              121.41335049467395,
              31.210318529069163
            ],
            [
              121.41348628657589,
              31.210345373667575
            ],
            [
              121.41362197211473,
              31.210372307025278
            ],
            [
              121.41375776267681,
              31.210399241536543
            ],
            [
              121.41389355482785,
              31.210426085712275
            ],
            [
              121.41402924061607,
              31.210453018647645
            ],
            [
              121.41416503142763,
              31.210479952736257
            ],
            [
              121.41430071888753,
              31.210506795195478
            ],
            [
              121.41443650986534,
              31.21053372900234
            ],
            [
              121.41457219598608,
              31.21056066137466
            ],
            [
              121.41470798863526,
              31.210587504705142
            ],
            [
              121.41484377986257,
              31.210614438089326
            ],
            [
              121.41497946623262,
              31.21064137003931
            ],
            [
              121.41511525913091,
              31.2106682129471
            ],
            [
              121.41525094566715,
              31.21069514461556
            ],
            [
              121.41538673722708,
              31.210722077436248
            ],
            [
              121.41552253037442,
              31.210748919921347
            ],
            [
              121.41565821716004,
              31.21077585116745
            ],
            [
              121.41579400896943,
              31.210802783565466
            ],
            [
              121.41592969742516,
              31.210829624335354
            ],
            [
              121.41606548940076,
              31.210856556451603
            ],
            [
              121.41620117050459,
              31.21088384791346
            ],
            [
              121.41633690250961,
              31.210914387536352
            ],
            [
              121.4164726331047,
              31.21094501721346
            ],
            [
              121.4166082603557,
              31.21097555526341
            ],
            [
              121.41674399113789,
              31.211006184659677
            ],
            [
              121.41687961857562,
              31.211036722428982
            ],
            [
              121.41701534954487,
              31.21106735154437
            ],
            [
              121.41715108211044,
              31.21109789032456
            ],
            [
              121.41728670982826,
              31.21112842767284
            ],
            [
              121.41742244107809,
              31.211159056366892
            ],
            [
              121.41755806898266,
              31.21118959343452
            ],
            [
              121.41769380041956,
              31.211220221847718
            ],
            [
              121.41782952894599,
              31.211251030509963
            ],
            [
              121.41796515863291,
              31.211281476961794
            ],
            [
              121.41810089185239,
              31.211312014758878
            ],
            [
              121.41823650821061,
              31.211343272683084
            ],
            [
              121.41837220257796,
              31.211376155263892
            ],
            [
              121.41850779961084,
              31.21140858544009
            ],
            [
              121.41864350768896,
              31.211440655987335
            ],
            [
              121.41877922186934,
              31.211472365615037
            ],
            [
              121.41891485522122,
              31.211502630695282
            ],
            [
              121.41905059360721,
              31.211532896925185
            ],
            [
              121.4191862256434,
              31.211563251919525
            ],
            [
              121.41932196421469,
              31.211593517868486
            ],
            [
              121.41945770287856,
              31.21162378367691
            ],
            [
              121.41959332469015,
              31.211654769613993
            ],
            [
              121.41972903803573,
              31.21168656845389
            ],
            [
              121.41986462703456,
              31.211719538397187
            ],
            [
              121.42000032107542,
              31.211752509489713
            ],
            [
              121.42013591027455,
              31.211785479152912
            ],
            [
              121.42027160451578,
              31.211818449965126
            ],
            [
              121.42040729885721,
              31.21185142063713
            ],
            [
              121.42054292884335,
              31.21188195461842
            ],
            [
              121.42067877181988,
              31.211905995716425
            ],
            [
              121.42081455190821,
              31.211927509927648
            ],
            [
              121.42095043550742,
              31.21194911548081
            ],
            [
              121.42108633266567,
              31.211969909138258
            ],
            [
              121.42122213693843,
              31.21198997980653
            ],
            [
              121.421358064202,
              31.21200896928239
            ],
            [
              121.42149390157012,
              31.212027055379117
            ],
            [
              121.42162984244011,
              31.212045232816845
            ],
            [
              121.42176573536362,
              31.212059981417422
            ],
            [
              121.42190174226744,
              31.212074189993817
            ],
            [
              121.42203779715743,
              31.212085512189585
            ],
            [
              121.42217378309518,
              31.212094668276237
            ],
            [
              121.42230987999937,
              31.212103464727484
            ],
            [
              121.42244587349062,
              31.212112169553308
            ],
            [
              121.4225819704581,
              31.212120965718196
            ],
            [
              121.4227180689548,
              31.21212967154488
            ],
            [
              121.42285406104311,
              31.2121384661364
            ],
            [
              121.42299007126829,
              31.212152493180643
            ],
            [
              121.42312592569725,
              31.21216958542519
            ],
            [
              121.42326188213015,
              31.21218685920435
            ],
            [
              121.42339782814123,
              31.21220476420635
            ],
            [
              121.42353352708234,
              31.212231236305307
            ],
            [
              121.42366917839905,
              31.212266909440675
            ],
            [
              121.42380465604498,
              31.212306730120705
            ],
            [
              121.42394010408555,
              31.21235466949937
            ],
            [
              121.42407539047052,
              31.212406034864625
            ],
            [
              121.4242105784864,
              31.212469667901964
            ],
            [
              121.42434563355003,
              31.21254132816073
            ],
            [
              121.42448057340773,
              31.212613618363363
            ],
            [
              121.42461532825513,
              31.212703407554624
            ],
            [
              121.42474993354968,
              31.21279590117804
            ],
            [
              121.4248843494502,
              31.212906164378854
            ],
            [
              121.4250185907108,
              31.213026980269483
            ],
            [
              121.42515254943962,
              31.213158527956452
            ],
            [
              121.42528633390089,
              31.21330694327584
            ],
            [
              121.42541971035384,
              31.213473666780814
            ],
            [
              121.42555271834448,
              31.213668983281448
            ],
            [
              121.42568550533619,
              31.213871333588262
            ],
            [
              121.42581821398637,
              31.214084779049806
            ],
            [
              121.42595080365662,
              31.214305439993918
            ],
            [
              121.42608339807188,
              31.21451951528922
            ],
            [
              121.42621690941068,
              31.214684615813592
            ],
            [
              121.42635051050271,
              31.214837989564924
            ],
            [
              121.42648462334742,
              31.214966831406954
            ],
            [
              121.42661888146507,
              31.21508692419424
            ],
            [
              121.42675313356672,
              31.21520106268996
            ],
            [
              121.42688783448415,
              31.215294457463546
            ],
            [
              121.42702246059363,
              31.215386046917715
            ],
            [
              121.4271571919116,
              31.215477637521843
            ],
            [
              121.4272920753951,
              31.215553713148076
            ],
            [
              121.42742724472072,
              31.215618876312284
            ],
            [
              121.42756241423623,
              31.215684039339923
            ],
            [
              121.42769748347378,
              31.215748930362533
            ],
            [
              121.42783272651656,
              31.21580967355528
            ],
            [
              121.4279679065855,
              31.21586788986406
            ],
            [
              121.42810321117523,
              31.21592493478154
            ],
            [
              121.42823852936438,
              31.215981167805158
            ],
            [
              121.42837374277165,
              31.21603739940869
            ],
            [
              121.42841963494409,
              31.216061505940733
            ],
            [
              121.42841897392381,
              31.216063392344083
            ],
            [
              121.42836585747281,
              31.21620311526662
            ],
            [
              121.42830801971677,
              31.216342690246496
            ],
            [
              121.4282499718875,
              31.216482262626414
            ],
            [
              121.42819223723002,
              31.216621929014803
            ],
            [
              121.42813460883507,
              31.216761506456308
            ],
            [
              121.42807687531456,
              31.21690108258056
            ],
            [
              121.42801924507167,
              31.21704075014831
            ],
            [
              121.42796151119558,
              31.21718032620358
            ],
            [
              121.4279038820901,
              31.217319903507327
            ],
            [
              121.4278461463656,
              31.217459569688735
            ],
            [
              121.42778851690485,
              31.217599146923575
            ],
            [
              121.42773078231764,
              31.21773872284089
            ],
            [
              121.42767157677265,
              31.217878370954164
            ],
            [
              121.42761153294494,
              31.218017918570407
            ],
            [
              121.42755337802122,
              31.21815748924909
            ],
            [
              121.42749627241359,
              31.218297072726298
            ],
            [
              121.4274415789789,
              31.2184367758828
            ],
            [
              121.42738699181821,
              31.21857639009608
            ],
            [
              121.4273322995388,
              31.218716002994412
            ],
            [
              121.4272777105469,
              31.218855707339795
            ],
            [
              121.4272230179294,
              31.218995320175047
            ],
            [
              121.42716843009329,
              31.219134934262367
            ],
            [
              121.4271137356441,
              31.219274637229592
            ],
            [
              121.42705904251945,
              31.219414249970182
            ],
            [
              121.42700445417661,
              31.21955386396301
            ],
            [
              121.42694975922005,
              31.219693566835574
            ],
            [
              121.42689663985597,
              31.21983319873989
            ],
            [
              121.42684887284528,
              31.219972896094916
            ],
            [
              121.42680120914297,
              31.220112684903587
            ],
            [
              121.4267495586237,
              31.220252334698984
            ],
            [
              121.42669769804053,
              31.22039198189748
            ],
            [
              121.42664583580226,
              31.22053171926206
            ],
            [
              121.42659397489723,
              31.220671366402666
            ],
            [
              121.42654211383129,
              31.220811013514314
            ],
            [
              121.42649025260441,
              31.220950660597044
            ],
            [
              121.42643880953237,
              31.221090402983066
            ],
            [
              121.42639051637596,
              31.221230093676205
            ],
            [
              121.42634253792751,
              31.221369788196725
            ],
            [
              121.42629455783474,
              31.2215095728867
            ],
            [
              121.4262464741337,
              31.221649266071623
            ],
            [
              121.42619818037603,
              31.221788956661836
            ],
            [
              121.4261466314158,
              31.221928697599285
            ],
            [
              121.4260951887439,
              31.2220683495977
            ],
            [
              121.42604364095848,
              31.222208000282865
            ],
            [
              121.4259920915181,
              31.22234774113435
            ],
            [
              121.42594054341261,
              31.222487391762186
            ],
            [
              121.42588899514709,
              31.22262704236136
            ],
            [
              121.42583755018077,
              31.22276678441169
            ],
            [
              121.4257860015953,
              31.22290643495357
            ],
            [
              121.42573277357504,
              31.223046064907464
            ],
            [
              121.42567817948189,
              31.22318576832098
            ],
            [
              121.42562169752561,
              31.22332535837703
            ],
            [
              121.42556196178616,
              31.223464908561283
            ],
            [
              121.42550201445697,
              31.223604546333583
            ],
            [
              121.42544038915213,
              31.223744073310634
            ],
            [
              121.42537131181203,
              31.223883508994156
            ],
            [
              121.42529646169635,
              31.224022873936683
            ],
            [
              121.42519757496162,
              31.224162034657503
            ],
            [
              121.42507224050861,
              31.224300781140347
            ],
            [
              121.42491951212499,
              31.224439191927882
            ],
            [
              121.42477202961462,
              31.22457775700113
            ],
            [
              121.42462454816857,
              31.22471623169301
            ],
            [
              121.42447717124737,
              31.224854707484432
            ],
            [
              121.42432548917118,
              31.224993220551227
            ],
            [
              121.42417223379462,
              31.225131623931848
            ],
            [
              121.42401897797032,
              31.22527002711191
            ],
            [
              121.4238657202011,
              31.225408520286255
            ],
            [
              121.42371445767046,
              31.225546947512463
            ],
            [
              121.42356308974006,
              31.225685373256205
            ],
            [
              121.42341098516616,
              31.22582387999016
            ],
            [
              121.4232564676164,
              31.22596226672859
            ],
            [
              121.42315978142707,
              31.2261013625076
            ],
            [
              121.41883975063746,
              31.230087148640287
            ]
          ]
        ]
      }
    },
    {
      "type": "Feature",
      "properties": {
        "id": "sector_zhenning_road",
        "sectorId": "sector_zhenning_road",
        "name": "镇宁路",
        "candidateStatus": "selected-market-candidate",
        "selectedForAssembly": true,
        "reviewStatus": "draft-medium",
        "coordinateSystem": "OGC:CRS84",
        "geometrySourceSnapshotId": "osm-geofabrik-shanghai-260721",
        "geometryMethod": "user_decided_market_scope_from_locked_osm_routes",
        "geometryRule": "用户裁定：北武定西路，经万航渡路、愚园路接镇宁路；东镇宁路、西江苏路、南延安西路；按道路分段闭合，不采用缓冲面。",
        "areaSquareKilometers": 0.8228,
        "labelPoint": [
          121.428922,
          31.2221519
        ],
        "routeOsmRefs": {
          "武定西路": [
            "47087474",
            "47087475",
            "68868376"
          ],
          "万航渡路": [
            "1064853447",
            "1064853453",
            "1067852464",
            "1073926490",
            "1270581676",
            "1270581677",
            "1324706268",
            "1332905228",
            "1332905229",
            "145391392",
            "145391393",
            "336887148",
            "439015791",
            "448934514",
            "448934519",
            "448935268",
            "47087481",
            "47087489",
            "49206236",
            "49206237",
            "545482984",
            "545482985",
            "72142225",
            "72142232",
            "72509972",
            "85796877",
            "85796879"
          ],
          "愚园路": [
            "1322939162",
            "1322939166",
            "40246921",
            "653559702",
            "653559703",
            "68866204",
            "70662723",
            "72157437",
            "986834722"
          ],
          "镇宁路": [
            "1063476461",
            "1073705837",
            "1073705838",
            "243624949",
            "424580494"
          ],
          "江苏路": [
            "1073705836",
            "1119184627",
            "1322939163",
            "1322939165",
            "14788300",
            "438751959",
            "438751961",
            "47451481",
            "610738421",
            "610738424",
            "686283610",
            "85796876"
          ],
          "延安西路": [
            "1005301535",
            "1007520281",
            "1073705816",
            "1073705839",
            "1073731393",
            "1073731396",
            "1073731399",
            "1073731400",
            "1074722384",
            "1077453009",
            "1077453011",
            "1077453012",
            "1077453013",
            "1077453014",
            "1077453016",
            "1077453017",
            "1092372215",
            "1092372216",
            "1100626098",
            "1100626099",
            "1100626104",
            "1101637577",
            "1101637585",
            "1119184689",
            "1195970004",
            "1195970019",
            "1231937675",
            "1231937678",
            "1271909854",
            "1290456015",
            "1324405453",
            "1329812756",
            "1330340325",
            "1330557835",
            "227962892",
            "39773349",
            "44032510",
            "44480437",
            "473715126",
            "473715132",
            "478281035",
            "478281036",
            "478281042",
            "478281043",
            "478286976",
            "478286978",
            "478286979",
            "482569924",
            "493197600",
            "493197602",
            "493197603",
            "493201500",
            "493201501",
            "493203287",
            "493203288",
            "493203289",
            "493203290",
            "493205358",
            "493205359",
            "493205360",
            "493205361",
            "493205362",
            "493220287",
            "493236910",
            "493243737",
            "493248026",
            "493248027",
            "493378222",
            "493378223",
            "493378224",
            "493378225",
            "493378337",
            "493667297",
            "493673020",
            "493674364",
            "493674366",
            "493677773",
            "493678300",
            "493678693",
            "493908983",
            "493908984",
            "494144673",
            "494147568",
            "494147571",
            "494147572",
            "494184913",
            "494187747",
            "494409756",
            "494409758",
            "494411825",
            "496249838",
            "561656852",
            "610738420",
            "610738422",
            "610738423",
            "610738425",
            "656471268",
            "656471269",
            "656471270",
            "656490088",
            "656490090",
            "657158768",
            "657158769",
            "71397365",
            "71397367",
            "749112318",
            "749112319",
            "769230222",
            "769230225",
            "8884713"
          ]
        }
      },
      "geometry": {
        "type": "Polygon",
        "coordinates": [
          [
            [
              121.42454307044535,
              31.225039820519324
            ],
            [
              121.42445269707179,
              31.224956799582632
            ],
            [
              121.42476881944047,
              31.224663690866876
            ],
            [
              121.42515743937342,
              31.224303358287337
            ],
            [
              121.42519646905929,
              31.22425403860566
            ],
            [
              121.42533757500615,
              31.224075791316736
            ],
            [
              121.42548353193803,
              31.2237822205258
            ],
            [
              121.42562089628485,
              31.223481327270843
            ],
            [
              121.42568656625129,
              31.223338421609757
            ],
            [
              121.42581993083333,
              31.223012760692793
            ],
            [
              121.42583536038349,
              31.222974879590783
            ],
            [
              121.42590057663172,
              31.222795973150244
            ],
            [
              121.42628177056046,
              31.221749113085835
            ],
            [
              121.42648771878997,
              31.22119862593894
            ],
            [
              121.42685684498419,
              31.220207728668363
            ],
            [
              121.4269965664455,
              31.219827294272783
            ],
            [
              121.42757472686934,
              31.218300918887646
            ],
            [
              121.42771479395219,
              31.217975337435153
            ],
            [
              121.4277889561796,
              31.217813589461958
            ],
            [
              121.42788564989367,
              31.217577961498858
            ],
            [
              121.42832656713196,
              31.216503226119702
            ],
            [
              121.428446489275,
              31.21621483603579
            ],
            [
              121.42872046360114,
              31.216392115247686
            ],
            [
              121.42953648288466,
              31.216925862080174
            ],
            [
              121.42959255837698,
              31.216962632228416
            ],
            [
              121.42975249925036,
              31.217078885659078
            ],
            [
              121.42999054769072,
              31.217277104148906
            ],
            [
              121.4306606976311,
              31.217834773952386
            ],
            [
              121.4315262942435,
              31.218406191263405
            ],
            [
              121.43217394184971,
              31.218833671629934
            ],
            [
              121.4324181605986,
              31.218995695196977
            ],
            [
              121.43297103163101,
              31.219333787550127
            ],
            [
              121.43301994707242,
              31.219352967587472
            ],
            [
              121.43301561361687,
              31.219361124205996
            ],
            [
              121.43263692449364,
              31.22005142322796
            ],
            [
              121.43256799891775,
              31.220182475136607
            ],
            [
              121.43225293879361,
              31.220782432837886
            ],
            [
              121.43202284808049,
              31.221347611027728
            ],
            [
              121.43195780079202,
              31.221504330442805
            ],
            [
              121.43189775976907,
              31.221663005348265
            ],
            [
              121.4315534137937,
              31.222554624582056
            ],
            [
              121.43153489778437,
              31.222633335434512
            ],
            [
              121.43152384327112,
              31.222705190867366
            ],
            [
              121.43166915139246,
              31.222748371172823
            ],
            [
              121.43231809081308,
              31.222927689915306
            ],
            [
              121.43247284187117,
              31.22299029011618
            ],
            [
              121.43255465015316,
              31.223020155662084
            ],
            [
              121.43276811016004,
              31.223106565785866
            ],
            [
              121.433262706895,
              31.223306912779453
            ],
            [
              121.43332442450145,
              31.223326519361418
            ],
            [
              121.43339344803941,
              31.223342335749503
            ],
            [
              121.43345292134688,
              31.223351630599193
            ],
            [
              121.43351420271503,
              31.223359504033816
            ],
            [
              121.4339851911594,
              31.22340655873776
            ],
            [
              121.43405700470555,
              31.223418710001745
            ],
            [
              121.43411900684056,
              31.223433809000895
            ],
            [
              121.434176127501,
              31.223452096210085
            ],
            [
              121.43423570019482,
              31.223474472856417
            ],
            [
              121.4349174667257,
              31.223770914566305
            ],
            [
              121.43498334103867,
              31.22379950208728
            ],
            [
              121.4351768441819,
              31.223886838157085
            ],
            [
              121.43523340877549,
              31.223913417773783
            ],
            [
              121.43528482906439,
              31.223940024979342
            ],
            [
              121.43537134114672,
              31.2239903342398
            ],
            [
              121.43545535666277,
              31.224039259864938
            ],
            [
              121.43599812853118,
              31.224355565684757
            ],
            [
              121.43602074219736,
              31.224365674007277
            ],
            [
              121.43620956202534,
              31.224482541604804
            ],
            [
              121.43623638242677,
              31.22449856492566
            ],
            [
              121.43635862691634,
              31.224565636730695
            ],
            [
              121.43642160602315,
              31.224597977288923
            ],
            [
              121.43648500203136,
              31.224630503313318
            ],
            [
              121.43665880608741,
              31.224715793399923
            ],
            [
              121.43699924882276,
              31.224881684897884
            ],
            [
              121.43723346744157,
              31.224995764979482
            ],
            [
              121.43728894809915,
              31.225024495661934
            ],
            [
              121.43733103876443,
              31.225050357186817
            ],
            [
              121.43736764939838,
              31.225077505302004
            ],
            [
              121.43739605258588,
              31.225105816653265
            ],
            [
              121.43742012835716,
              31.22514192398073
            ],
            [
              121.43749548325147,
              31.22516864076031
            ],
            [
              121.43756254291415,
              31.225182717026478
            ],
            [
              121.43764733491398,
              31.225190964418424
            ],
            [
              121.43771763279167,
              31.225193261986988
            ],
            [
              121.43788465493873,
              31.22518681116632
            ],
            [
              121.43797532538358,
              31.22518231944599
            ],
            [
              121.43804146689031,
              31.225175635211045
            ],
            [
              121.43809945730004,
              31.225166686805434
            ],
            [
              121.43819208743068,
              31.22514516838913
            ],
            [
              121.43847091959239,
              31.225074399440594
            ],
            [
              121.43852604935667,
              31.225067039942243
            ],
            [
              121.4385840289358,
              31.225065127835773
            ],
            [
              121.43882870098425,
              31.22507351157257
            ],
            [
              121.43918749553606,
              31.2250620800273
            ],
            [
              121.43926052523662,
              31.225096165062972
            ],
            [
              121.439339874687,
              31.225128973562168
            ],
            [
              121.43996223982235,
              31.2254325165851
            ],
            [
              121.43979584964214,
              31.225553819559778
            ],
            [
              121.43917545713288,
              31.22594133501433
            ],
            [
              121.43836978942302,
              31.226455331853288
            ],
            [
              121.4382274344621,
              31.226544808622805
            ],
            [
              121.43810056951132,
              31.226598839079248
            ],
            [
              121.43774703486073,
              31.226749620934587
            ],
            [
              121.43647900050543,
              31.227117975540448
            ],
            [
              121.43635336665955,
              31.22715451779825
            ],
            [
              121.43608524770282,
              31.227224510142666
            ],
            [
              121.43588154859752,
              31.227277693985886
            ],
            [
              121.43581069610293,
              31.227296227930246
            ],
            [
              121.43561981999639,
              31.227310234308217
            ],
            [
              121.4354125478094,
              31.227325394085685
            ],
            [
              121.43522997533525,
              31.22733877921822
            ],
            [
              121.43490780378822,
              31.227344240166143
            ],
            [
              121.43372844030898,
              31.227363799122216
            ],
            [
              121.43361208974756,
              31.22736571961283
            ],
            [
              121.43332880754907,
              31.22734927745486
            ],
            [
              121.43310344834686,
              31.22732172262242
            ],
            [
              121.43281377872269,
              31.227202538709403
            ],
            [
              121.43262066122936,
              31.22719332847817
            ],
            [
              121.42970636539961,
              31.22774749346332
            ],
            [
              121.42884447663722,
              31.22720145832481
            ],
            [
              121.42873621197299,
              31.227133467718044
            ],
            [
              121.42825441031835,
              31.226838174828856
            ],
            [
              121.42819681250549,
              31.226804272250632
            ],
            [
              121.42786547293419,
              31.22660905943834
            ],
            [
              121.42780798036212,
              31.226575157977365
            ],
            [
              121.42761125201665,
              31.2265051825851
            ],
            [
              121.42748903862153,
              31.226461829016902
            ],
            [
              121.42705720760809,
              31.226376076756377
            ],
            [
              121.42677671560534,
              31.22632456142077
            ],
            [
              121.42650112624345,
              31.226287629805693
            ],
            [
              121.42641333113777,
              31.226276902547866
            ],
            [
              121.42639227637869,
              31.226274118899067
            ],
            [
              121.42597900999202,
              31.22622115722554
            ],
            [
              121.42580134697849,
              31.226179107951012
            ],
            [
              121.42569189641907,
              31.226138525137255
            ],
            [
              121.4253213447015,
              31.225902771120968
            ],
            [
              121.42523855046385,
              31.225850064960106
            ],
            [
              121.4250575852358,
              31.225684382141495
            ],
            [
              121.42490282525634,
              31.22547048538976
            ],
            [
              121.42484278828705,
              31.225387565693968
            ],
            [
              121.42477413253107,
              31.22529263224023
            ],
            [
              121.42467687068648,
              31.225169201761958
            ],
            [
              121.42454307044535,
              31.225039820519324
            ]
          ]
        ]
      }
    },
    {
      "type": "Feature",
      "properties": {
        "id": "sector_wuning",
        "sectorId": "sector_wuning",
        "name": "武宁",
        "candidateStatus": "selected-market-candidate",
        "selectedForAssembly": true,
        "reviewStatus": "draft-medium",
        "coordinateSystem": "OGC:CRS84",
        "geometrySourceSnapshotId": "osm-geofabrik-shanghai-260721",
        "geometryMethod": "user_decided_market_scope_from_locked_osm_routes",
        "geometryRule": "用户裁定：南苏州河，西北及北侧沿中山北路，东中潭路；中潭路按名称线方向延伸到苏州河，不采用道路缓冲面。",
        "areaSquareKilometers": 3.1204,
        "labelPoint": [
          121.4180041,
          31.2403419
        ],
        "routeOsmRefs": {
          "中山北路": [
            "1068486055",
            "1068486114",
            "1068486125",
            "1068486126",
            "1073705835",
            "1073731389",
            "1073731390",
            "1074542786",
            "1074542792",
            "1074560217",
            "1074560218",
            "1074560219",
            "1074560220",
            "1085107745",
            "1085107746",
            "1085107747",
            "1085107748",
            "1085107749",
            "1085107750",
            "1085107751",
            "1091862746",
            "1092040736",
            "1092040751",
            "1092087673",
            "1092087674",
            "1092372218",
            "1118804253",
            "1119387528",
            "1119387529",
            "1119387530",
            "1131988441",
            "1131988462",
            "1202332867",
            "1202332869",
            "1202332870",
            "1205403617",
            "1205403619",
            "12110840",
            "1214520052",
            "1214520053",
            "1214520056",
            "1214520058",
            "1214520060",
            "1214520062",
            "12255370",
            "1254816432",
            "1270581681",
            "1271083322",
            "1273359357",
            "1273359362",
            "1273359377",
            "1273359378",
            "1273359379",
            "1326094922",
            "1327579125",
            "1330805306",
            "1330805309",
            "1334955915",
            "1334955921",
            "1337115427",
            "1337115428",
            "1337777342",
            "226894619",
            "44472952",
            "44478903",
            "44478904",
            "44479803",
            "44479840",
            "47097095",
            "48557566",
            "52205569",
            "52205570",
            "52205571",
            "52205574",
            "68585721",
            "68586512",
            "686415140",
            "686415141",
            "686457552",
            "686457553",
            "70979176",
            "71293504",
            "769245722",
            "769245724",
            "769245725",
            "769245740",
            "769245741",
            "779247855",
            "779247856",
            "779247857",
            "779247858",
            "858173003",
            "858173004",
            "858173005",
            "858173007",
            "858173008",
            "967135074",
            "967135075",
            "967135080",
            "967135082"
          ],
          "中潭路": [
            "226894612",
            "226894614",
            "50383184"
          ],
          "苏州河": [
            "1005345489"
          ]
        }
      },
      "geometry": {
        "type": "Polygon",
        "coordinates": [
          [
            [
              121.40642645553555,
              31.224692343703037
            ],
            [
              121.40640868141473,
              31.22443158872815
            ],
            [
              121.40722053121429,
              31.224521756975125
            ],
            [
              121.40831851865259,
              31.22477667291002
            ],
            [
              121.40861269732154,
              31.224881262391936
            ],
            [
              121.40865256069179,
              31.224895468117538
            ],
            [
              121.4100099484519,
              31.225439284202736
            ],
            [
              121.41091114997698,
              31.225842941594276
            ],
            [
              121.4112622504391,
              31.226210026505118
            ],
            [
              121.41142623576657,
              31.22646681394141
            ],
            [
              121.41145774310476,
              31.227250341531775
            ],
            [
              121.41122373563202,
              31.228172944292993
            ],
            [
              121.41056793889504,
              31.22947599280006
            ],
            [
              121.41022463913748,
              31.2302098698765
            ],
            [
              121.41021423774241,
              31.230417230804385
            ],
            [
              121.41069664873261,
              31.230466767906616
            ],
            [
              121.41134037688231,
              31.230393442040945
            ],
            [
              121.41224159830675,
              31.229769566402656
            ],
            [
              121.4131858232018,
              31.22885212075916
            ],
            [
              121.41456822789753,
              31.227519318305614
            ],
            [
              121.41489493297462,
              31.22726118752955
            ],
            [
              121.41507469258337,
              31.227158576039045
            ],
            [
              121.41525179780055,
              31.22710175976941
            ],
            [
              121.41545837196578,
              31.22707191925745
            ],
            [
              121.41567738144747,
              31.227076963644908
            ],
            [
              121.41589204476422,
              31.227122279324853
            ],
            [
              121.41618036058856,
              31.227252039184457
            ],
            [
              121.41644735044036,
              31.22742050777827
            ],
            [
              121.41668709200226,
              31.227624003790925
            ],
            [
              121.41690111255652,
              31.227846488262607
            ],
            [
              121.41708573484068,
              31.22806924195287
            ],
            [
              121.4178842555498,
              31.229100462224306
            ],
            [
              121.41821145615152,
              31.229480315589498
            ],
            [
              121.41843064832203,
              31.229707913174234
            ],
            [
              121.41884243909301,
              31.23008961745502
            ],
            [
              121.41940541130136,
              31.23057214285283
            ],
            [
              121.4196763732977,
              31.230811922103932
            ],
            [
              121.41983661512502,
              31.230992693902394
            ],
            [
              121.4199479105858,
              31.231149679227933
            ],
            [
              121.42026326802691,
              31.231743728193432
            ],
            [
              121.42051721213171,
              31.232287314552
            ],
            [
              121.42111851827632,
              31.233881186921625
            ],
            [
              121.4213378344791,
              31.234493720242003
            ],
            [
              121.42147271121848,
              31.23511441813233
            ],
            [
              121.4215166449279,
              31.235717580474137
            ],
            [
              121.42148604369493,
              31.236547525166802
            ],
            [
              121.4213924668383,
              31.23760349184874
            ],
            [
              121.42141728079737,
              31.23798007488217
            ],
            [
              121.4215718100654,
              31.238259016435123
            ],
            [
              121.42243013795701,
              31.23870672489297
            ],
            [
              121.42337427032918,
              31.239102885993635
            ],
            [
              121.42485910995036,
              31.240056958717208
            ],
            [
              121.42590628743751,
              31.240673401501958
            ],
            [
              121.42617245082707,
              31.240996285313578
            ],
            [
              121.42624957710048,
              31.241385235825913
            ],
            [
              121.42588871335826,
              31.242429092455247
            ],
            [
              121.42524502006626,
              31.244336970975137
            ],
            [
              121.4245587212844,
              31.24572947777142
            ],
            [
              121.42450950588355,
              31.24589206971832
            ],
            [
              121.4245302489502,
              31.246052993208174
            ],
            [
              121.42460707761231,
              31.246175090875724
            ],
            [
              121.4247320503538,
              31.24629398961571
            ],
            [
              121.42492563121738,
              31.246416706038534
            ],
            [
              121.42518102076919,
              31.246491103664837
            ],
            [
              121.4265838895114,
              31.246735440871806
            ],
            [
              121.42874733134514,
              31.247123660823416
            ],
            [
              121.42915032990273,
              31.2473457295027
            ],
            [
              121.42938243473097,
              31.247710681044254
            ],
            [
              121.42945071732976,
              31.24815283746533
            ],
            [
              121.42921934473745,
              31.250381698760997
            ],
            [
              121.42920906079432,
              31.250577876488627
            ],
            [
              121.42920829269615,
              31.250770110929352
            ],
            [
              121.4292236212356,
              31.25090976751603
            ],
            [
              121.42925783908902,
              31.251018441276244
            ],
            [
              121.42932521657565,
              31.251134827533384
            ],
            [
              121.42941200095795,
              31.251220688302006
            ],
            [
              121.42957285997663,
              31.251297530753767
            ],
            [
              121.42976851566158,
              31.251327616771707
            ],
            [
              121.42995744348887,
              31.251320091708088
            ],
            [
              121.43016235406625,
              31.251266843187548
            ],
            [
              121.43050721898129,
              31.25113230759598
            ],
            [
              121.43093433357379,
              31.250932468689953
            ],
            [
              121.43215432671924,
              31.250060743773243
            ],
            [
              121.43266929677226,
              31.249767156693387
            ],
            [
              121.4330215884619,
              31.249780022615937
            ],
            [
              121.43344219179122,
              31.250183621076015
            ],
            [
              121.43498681814303,
              31.25435323232197
            ],
            [
              121.4350712086365,
              31.25451465876513
            ],
            [
              121.43526435001294,
              31.25474858741257
            ],
            [
              121.43546247722017,
              31.254864938683056
            ],
            [
              121.43576289064184,
              31.254923715819423
            ],
            [
              121.43610187149234,
              31.254904386041577
            ],
            [
              121.43642306911127,
              31.254785334001692
            ],
            [
              121.43669411564836,
              31.254587095500217
            ],
            [
              121.43693799955692,
              31.25430381595455
            ],
            [
              121.43715754862222,
              31.25394229586992
            ],
            [
              121.43725995220184,
              31.253648003078947
            ],
            [
              121.43735106541737,
              31.253331470690707
            ],
            [
              121.43750668957256,
              31.25243267525408
            ],
            [
              121.43760502693192,
              31.2521555633354
            ],
            [
              121.43778313465371,
              31.25189971894904
            ],
            [
              121.43806989209229,
              31.25167135659006
            ],
            [
              121.43833136154016,
              31.25154381520384
            ],
            [
              121.4387780264962,
              31.251469583745372
            ],
            [
              121.43923581592861,
              31.25147866234519
            ],
            [
              121.43933661623063,
              31.251485479657166
            ],
            [
              121.4393340219549,
              31.25152189426923
            ],
            [
              121.4393227774643,
              31.25168197628617
            ],
            [
              121.43931142645243,
              31.251842147217257
            ],
            [
              121.43929997040276,
              31.252002316867262
            ],
            [
              121.4392856811225,
              31.25216236189206
            ],
            [
              121.43926897558022,
              31.25232246778044
            ],
            [
              121.43925069515095,
              31.25248255453589
            ],
            [
              121.43922181233629,
              31.252642422310068
            ],
            [
              121.4391808542792,
              31.25280223363326
            ],
            [
              121.4391262490614,
              31.252961788974925
            ],
            [
              121.43905725872644,
              31.253121259779324
            ],
            [
              121.43897199488947,
              31.253280532871152
            ],
            [
              121.43887875308153,
              31.253439618772404
            ],
            [
              121.43877648040336,
              31.253598685100282
            ],
            [
              121.43866097872404,
              31.253757590615518
            ],
            [
              121.43853728895785,
              31.253916306315823
            ],
            [
              121.4384137022756,
              31.25407511335037
            ],
            [
              121.43829001166809,
              31.254233828777625
            ],
            [
              121.43817860298017,
              31.254392783549736
            ],
            [
              121.43806855878279,
              31.254551754797635
            ],
            [
              121.43795862068446,
              31.254710637016366
            ],
            [
              121.43784164636267,
              31.254869523812186
            ],
            [
              121.43769800401869,
              31.255028086291368
            ],
            [
              121.43753850906333,
              31.255186365644914
            ],
            [
              121.43736032369296,
              31.25534450773171
            ],
            [
              121.43712292272545,
              31.25550192941831
            ],
            [
              121.43693360847956,
              31.255659845321
            ],
            [
              121.43681610628214,
              31.255818724679614
            ],
            [
              121.43675362079156,
              31.255978182967134
            ],
            [
              121.43672263113919,
              31.256138114572273
            ],
            [
              121.43670953455279,
              31.25621274186806
            ],
            [
              121.43194580320561,
              31.25559854051511
            ],
            [
              121.43186403430232,
              31.25554558009721
            ],
            [
              121.43166651379329,
              31.25541813455957
            ],
            [
              121.43150831950561,
              31.255249490332435
            ],
            [
              121.43118883511595,
              31.254909006071163
            ],
            [
              121.43093110842828,
              31.254574327017256
            ],
            [
              121.43031327515452,
              31.25377173544003
            ],
            [
              121.43024716053543,
              31.2536930741177
            ],
            [
              121.42996138111162,
              31.25335335947053
            ],
            [
              121.4291116398009,
              31.252561009849703
            ],
            [
              121.42843334368045,
              31.25201865655877
            ],
            [
              121.42832042379507,
              31.25193211467541
            ],
            [
              121.42736092163618,
              31.2511873971622
            ],
            [
              121.42706026899461,
              31.25095412598707
            ],
            [
              121.42699739590006,
              31.250882900189662
            ],
            [
              121.42611697241692,
              31.24988573347538
            ],
            [
              121.42567843762754,
              31.249413059594477
            ],
            [
              121.42548963234755,
              31.249185665526397
            ],
            [
              121.42489431181183,
              31.248714225696475
            ],
            [
              121.42478807906267,
              31.24863010830459
            ],
            [
              121.42474081790913,
              31.248592722198712
            ],
            [
              121.4246741766252,
              31.248539942770083
            ],
            [
              121.42452807031191,
              31.24845416367073
            ],
            [
              121.42414260011373,
              31.248226612153726
            ],
            [
              121.42374308548666,
              31.24802288389983
            ],
            [
              121.4228228421869,
              31.24763080619178
            ],
            [
              121.42240193777137,
              31.247463437809728
            ],
            [
              121.42219393820167,
              31.247380685348766
            ],
            [
              121.4221144943906,
              31.247352826643905
            ],
            [
              121.42203058893728,
              31.24732175566421
            ],
            [
              121.42151557354329,
              31.247131036616842
            ],
            [
              121.4212786521278,
              31.247019600669237
            ],
            [
              121.42106930070904,
              31.246910938730228
            ],
            [
              121.42049344745026,
              31.24657160943376
            ],
            [
              121.42007915076357,
              31.24634847305574
            ],
            [
              121.41981619457137,
              31.246199095697527
            ],
            [
              121.41821192931653,
              31.245226083825752
            ],
            [
              121.41807377944843,
              31.24514238017161
            ],
            [
              121.41762423758344,
              31.244880101004455
            ],
            [
              121.41655999376796,
              31.244355758878932
            ],
            [
              121.41531944871655,
              31.243662882352996
            ],
            [
              121.4149986634431,
              31.243481478595527
            ],
            [
              121.41476274764437,
              31.243329718217833
            ],
            [
              121.41367069411099,
              31.24261808893825
            ],
            [
              121.41228881976916,
              31.24177747545874
            ],
            [
              121.41190895049253,
              31.241500971870536
            ],
            [
              121.41151825266121,
              31.241175257654437
            ],
            [
              121.41121906303154,
              31.240915265670544
            ],
            [
              121.4111023101259,
              31.24080854430946
            ],
            [
              121.41080984939924,
              31.240516789489785
            ],
            [
              121.41052046280709,
              31.240166975048787
            ],
            [
              121.41024644890385,
              31.23980841904287
            ],
            [
              121.41017204529302,
              31.239705919329104
            ],
            [
              121.40989927040798,
              31.239329966883847
            ],
            [
              121.40985657990585,
              31.23927107117149
            ],
            [
              121.40954102480028,
              31.238810420325382
            ],
            [
              121.40885518831493,
              31.237797233982167
            ],
            [
              121.40786234270553,
              31.236416594707492
            ],
            [
              121.40753911247357,
              31.235963963252996
            ],
            [
              121.4070816150724,
              31.23531047772392
            ],
            [
              121.40699180267448,
              31.23518189427196
            ],
            [
              121.40684546217979,
              31.234943362640852
            ],
            [
              121.40666281314037,
              31.23461001834644
            ],
            [
              121.40659892006848,
              31.234469757581646
            ],
            [
              121.40643943999524,
              31.234119740156206
            ],
            [
              121.40627745727969,
              31.23371249665078
            ],
            [
              121.40611586415945,
              31.233188342087182
            ],
            [
              121.40610657400784,
              31.233147631182355
            ],
            [
              121.40607733404677,
              31.23301952744414
            ],
            [
              121.4060520257223,
              31.232901125206205
            ],
            [
              121.40593024961166,
              31.232519278470324
            ],
            [
              121.40583211335812,
              31.232148911131386
            ],
            [
              121.4057814860205,
              31.23198157021925
            ],
            [
              121.40567064950945,
              31.23153607848302
            ],
            [
              121.40564529278141,
              31.231195571794537
            ],
            [
              121.40561948944541,
              31.23081915487733
            ],
            [
              121.40562944656158,
              31.230532582246845
            ],
            [
              121.40569462584217,
              31.230208444190186
            ],
            [
              121.40576171225071,
              31.22992700035948
            ],
            [
              121.40598224606717,
              31.229297613907196
            ],
            [
              121.4061548052676,
              31.22903687315902
            ],
            [
              121.40623475237642,
              31.22879591352976
            ],
            [
              121.40645024155843,
              31.228235295878747
            ],
            [
              121.40645617278237,
              31.227994501222643
            ],
            [
              121.4064936920543,
              31.227791897219582
            ],
            [
              121.40655589797844,
              31.227463211003307
            ],
            [
              121.40658144771706,
              31.226829060934254
            ],
            [
              121.40651723753201,
              31.225700875528144
            ],
            [
              121.406461142427,
              31.22507753135241
            ],
            [
              121.40642645553555,
              31.224692343703037
            ]
          ]
        ]
      }
    }
  ]
}
