{
  "type": "FeatureCollection",
  "name": "shanghai_property_sectors_mock",
  "mockDataNotice": "楼市板块演示范围：以下坐标只是根据公开地图中的主要道路、水系和片区位置做的大致描边，不是行政区边界，也不代表任何官方房产板块界线。",
  "features": [
    { "type": "Feature", "properties": { "id": "sector_qiantan", "name": "杨思前滩", "district": "浦东新区", "description": "川杨河以南、春塘河以西、中环路以北、黄浦江以东的市场板块候选范围。", "sourceName": "卖方市场四至与开放道路水系独立重建（内部候选，非官方边界）", "boundaryBasis": "候选四至：北川杨河、东春塘河、南中环路—华夏西路、西黄浦江", "isMock": true, "center": [121.481, 31.153] }, "geometry": { "type": "Polygon", "coordinates": [[[121.455,31.176],[121.465,31.180],[121.477,31.179],[121.484,31.174],[121.494,31.170],[121.505,31.163],[121.511,31.154],[121.508,31.147],[121.511,31.141],[121.502,31.137],[121.499,31.131],[121.488,31.130],[121.480,31.135],[121.472,31.134],[121.467,31.143],[121.462,31.149],[121.464,31.156],[121.457,31.161],[121.459,31.169],[121.455,31.176]]] } },
    { "type": "Feature", "properties": { "id": "sector_xuhuibinjiang", "name": "徐汇滨江", "district": "徐汇区", "description": "沿黄浦江西岸从日晖港、龙华向南展开的滨水板块演示范围。", "sourceName": "根据公开地图主要道路与水系大致定位（演示描边，非官方边界）", "boundaryBasis": "定位参考：黄浦江岸线、日晖港、龙腾大道、龙吴路与内环高架路", "isMock": true, "center": [121.459, 31.183] }, "geometry": { "type": "Polygon", "coordinates": [[[121.425,31.218],[121.437,31.222],[121.446,31.217],[121.452,31.211],[121.460,31.207],[121.468,31.201],[121.477,31.193],[121.483,31.185],[121.479,31.177],[121.474,31.170],[121.469,31.164],[121.462,31.159],[121.454,31.158],[121.449,31.165],[121.444,31.168],[121.441,31.178],[121.436,31.186],[121.432,31.197],[121.425,31.205],[121.425,31.218]]] } },
    { "type": "Feature", "properties": { "id": "sector_daning", "name": "大宁", "district": "静安区", "description": "静安北部围绕大宁公园与共和新路形成的成熟居住片区演示范围。", "sourceName": "根据公开地图主要道路与水系大致定位（演示描边，非官方边界）", "boundaryBasis": "定位参考：走马塘、沪太路、共和新路、内环高架路与汶水路", "isMock": true, "center": [121.447, 31.285] }, "geometry": { "type": "Polygon", "coordinates": [[[121.413,31.304],[121.431,31.310],[121.446,31.306],[121.458,31.309],[121.472,31.300],[121.470,31.293],[121.476,31.286],[121.468,31.280],[121.466,31.268],[121.453,31.264],[121.441,31.268],[121.431,31.263],[121.421,31.269],[121.415,31.279],[121.417,31.289],[121.411,31.294],[121.413,31.304]]] } },
    { "type": "Feature", "properties": { "id": "sector_beiwaitan", "name": "北外滩", "district": "虹口区", "description": "苏州河以北、黄浦江西岸，沿北外滩滨水岸线展开的商务片区演示范围。", "sourceName": "根据公开地图主要道路与水系大致定位（演示描边，非官方边界）", "boundaryBasis": "定位参考：苏州河、黄浦江、周家嘴路、大连路与四川北路", "isMock": true, "center": [121.505, 31.258] }, "geometry": { "type": "Polygon", "coordinates": [[[121.479,31.267],[121.487,31.273],[121.501,31.274],[121.513,31.278],[121.528,31.269],[121.534,31.260],[121.529,31.254],[121.531,31.248],[121.520,31.243],[121.509,31.240],[121.499,31.242],[121.491,31.247],[121.482,31.252],[121.478,31.260],[121.479,31.267]]] } },
    { "type": "Feature", "properties": { "id": "sector_zhangjiang", "name": "张江", "district": "浦东新区", "description": "围绕张江科学城核心研发与产业组团形成的浦东中部板块演示范围。", "sourceName": "根据公开地图主要道路与水系大致定位（演示描边，非官方边界）", "boundaryBasis": "定位参考：罗山路、龙东大道、申江路、华夏中路与川杨河", "isMock": true, "center": [121.601, 31.203] }, "geometry": { "type": "Polygon", "coordinates": [[[121.556,31.243],[121.574,31.249],[121.591,31.246],[121.607,31.248],[121.619,31.239],[121.633,31.233],[121.641,31.221],[121.648,31.212],[121.644,31.202],[121.647,31.191],[121.637,31.181],[121.635,31.174],[121.622,31.166],[121.609,31.161],[121.598,31.164],[121.588,31.161],[121.577,31.174],[121.569,31.187],[121.570,31.198],[121.561,31.206],[121.557,31.221],[121.560,31.232],[121.556,31.243]]] } },
    { "type": "Feature", "properties": { "id": "sector_jinqiao", "name": "金桥", "district": "浦东新区", "description": "金桥开发区及周边产业、居住功能复合发展的板块演示范围。", "sourceName": "根据公开地图主要道路与水系大致定位（演示描边，非官方边界）", "boundaryBasis": "定位参考：杨高北路、巨峰路、金桥路、龙东大道与申江路", "isMock": true, "center": [121.612, 31.257] }, "geometry": { "type": "Polygon", "coordinates": [[[121.573,31.291],[121.588,31.297],[121.603,31.295],[121.614,31.298],[121.628,31.290],[121.638,31.288],[121.646,31.277],[121.650,31.267],[121.647,31.259],[121.652,31.251],[121.642,31.243],[121.638,31.235],[121.623,31.229],[121.610,31.225],[121.600,31.230],[121.590,31.231],[121.582,31.243],[121.576,31.249],[121.577,31.260],[121.571,31.270],[121.574,31.280],[121.573,31.291]]] } },
    { "type": "Feature", "properties": { "id": "sector_sanlin", "name": "三林", "district": "浦东新区", "description": "浦东南部、黄浦江东岸的成熟居住板块演示范围。", "sourceName": "根据公开地图主要道路与水系大致定位（演示描边，非官方边界）", "boundaryBasis": "定位参考：黄浦江、川杨河、中环路、杨高南路与外环高速", "isMock": true, "center": [121.515, 31.146] }, "geometry": { "type": "Polygon", "coordinates": [[[121.479,31.176],[121.491,31.182],[121.503,31.179],[121.514,31.181],[121.525,31.173],[121.537,31.169],[121.542,31.160],[121.551,31.154],[121.552,31.145],[121.548,31.137],[121.552,31.129],[121.544,31.120],[121.533,31.114],[121.528,31.109],[121.514,31.107],[121.505,31.112],[121.497,31.110],[121.488,31.121],[121.485,31.131],[121.480,31.137],[121.482,31.148],[121.477,31.157],[121.480,31.166],[121.479,31.176]]] } },
    { "type": "Feature", "properties": { "id": "sector_beicai", "name": "北蔡", "district": "浦东新区", "description": "连接花木、张江与三林的浦东中南部居住板块演示范围。", "sourceName": "根据公开地图主要道路与水系大致定位（演示描边，非官方边界）", "boundaryBasis": "定位参考：沪南路、罗山路、龙阳路、华夏西路与川杨河", "isMock": true, "center": [121.565, 31.182] }, "geometry": { "type": "Polygon", "coordinates": [[[121.531,31.210],[121.545,31.216],[121.558,31.214],[121.568,31.218],[121.579,31.211],[121.592,31.207],[121.594,31.198],[121.601,31.190],[121.597,31.182],[121.600,31.174],[121.591,31.166],[121.579,31.161],[121.575,31.155],[121.562,31.153],[121.551,31.158],[121.544,31.157],[121.537,31.169],[121.539,31.179],[121.532,31.184],[121.530,31.197],[121.534,31.203],[121.531,31.210]]] } },
    { "type": "Feature", "properties": { "id": "sector_gumei", "name": "古美", "district": "闵行区", "description": "闵行东北部、内中环之间的成熟居住板块演示范围。", "sourceName": "根据公开地图主要道路与水系大致定位（演示描边，非官方边界）", "boundaryBasis": "定位参考：漕宝路、顾戴路、虹梅路、莲花路与中环路", "isMock": true, "center": [121.4, 31.154] }, "geometry": { "type": "Polygon", "coordinates": [[[121.366,31.176],[121.379,31.183],[121.392,31.181],[121.402,31.185],[121.412,31.180],[121.423,31.178],[121.424,31.168],[121.430,31.159],[121.425,31.151],[121.428,31.143],[121.417,31.135],[121.412,31.129],[121.400,31.128],[121.390,31.132],[121.382,31.129],[121.375,31.138],[121.376,31.147],[121.369,31.151],[121.367,31.163],[121.370,31.169],[121.366,31.176]]] } },
    { "type": "Feature", "properties": { "id": "sector_xinzhuang", "name": "莘庄", "district": "闵行区", "description": "围绕莘庄枢纽与闵行传统中心形成的综合生活板块演示范围。", "sourceName": "根据公开地图主要道路与水系大致定位（演示描边，非官方边界）", "boundaryBasis": "定位参考：沪闵路、外环高速、淀浦河、七莘路与莘庄立交", "isMock": true, "center": [121.376, 31.112] }, "geometry": { "type": "Polygon", "coordinates": [[[121.334,31.134],[121.347,31.141],[121.359,31.139],[121.368,31.145],[121.381,31.141],[121.394,31.137],[121.399,31.131],[121.410,31.124],[121.410,31.114],[121.415,31.108],[121.409,31.099],[121.407,31.092],[121.396,31.086],[121.384,31.079],[121.375,31.083],[121.365,31.081],[121.355,31.089],[121.346,31.092],[121.343,31.102],[121.336,31.108],[121.338,31.118],[121.333,31.126],[121.334,31.134]]] } },
    { "type": "Feature", "properties": { "id": "sector_xujing", "name": "徐泾", "district": "青浦区", "description": "虹桥枢纽西侧、会展与居住功能并存的青浦东部板块演示范围。", "sourceName": "根据公开地图主要道路与水系大致定位（演示描边，非官方边界）", "boundaryBasis": "定位参考：崧泽高架路、沈海高速、沪青平公路、蟠龙路与诸光路", "isMock": true, "center": [121.275, 31.177] }, "geometry": { "type": "Polygon", "coordinates": [[[121.227,31.211],[121.243,31.219],[121.256,31.217],[121.266,31.223],[121.280,31.218],[121.291,31.220],[121.302,31.212],[121.313,31.206],[121.314,31.197],[121.321,31.188],[121.316,31.179],[121.318,31.169],[121.306,31.158],[121.302,31.152],[121.287,31.146],[121.277,31.141],[121.265,31.139],[121.255,31.145],[121.247,31.143],[121.238,31.156],[121.237,31.166],[121.230,31.174],[121.232,31.185],[121.225,31.193],[121.229,31.202],[121.227,31.211]]] } },
    { "type": "Feature", "properties": { "id": "sector_hongqiao", "name": "虹桥商务区", "district": "闵行区 / 长宁区 / 青浦区", "description": "围绕虹桥综合交通枢纽、国家会展中心形成的跨区商务会展板块演示范围。", "sourceName": "根据公开地图主要道路与水系大致定位（演示描边，非官方边界）", "boundaryBasis": "定位参考：虹桥枢纽、北翟高架路、嘉闵高架路、沪青平公路与诸光路", "isMock": true, "center": [121.327, 31.194] }, "geometry": { "type": "Polygon", "coordinates": [[[121.291,31.223],[121.305,31.229],[121.317,31.227],[121.327,31.232],[121.341,31.226],[121.353,31.222],[121.358,31.215],[121.368,31.205],[121.365,31.197],[121.370,31.190],[121.363,31.182],[121.361,31.176],[121.349,31.169],[121.344,31.164],[121.331,31.160],[121.321,31.164],[121.313,31.162],[121.304,31.173],[121.306,31.182],[121.298,31.189],[121.299,31.199],[121.291,31.205],[121.294,31.214],[121.291,31.223]]] } }
  ]
}
